;FLAVOR:Marlin
;TIME:116
;Filament used: 0.110268m
;Layer height: 0.25
;MINX:43.212
;MINY:43.212
;MINZ:0.3
;MAXX:76.788
;MAXY:76.788
;MAXZ:0.3
;Generated with Cura_SteamEngine 4.8.0
M140 S60
M105
M190 S60
M104 S190
M105
M109 S190
M82 ;absolute extrusion mode
G28 ;Home
G1 Z15.0 F6000 ;Move the platform down 15mm
;Prime the extruder
G92 E0
G1 F200 E3
G92 E0
G92 E0
G92 E0
G1 F2700 E-4
;LAYER_COUNT:1
;LAYER:0
M107
M204 S1000
M205 X30 Y30
G0 F1350 X44.625 Y44.335 Z0.3
M204 S500
M205 X10 Y10
;TYPE:SKIRT
G1 F2700 E0
G1 F900 X45.084 Y43.972 E0.03947
G1 X45.589 Y43.675 E0.07898
G1 X46.129 Y43.449 E0.11846
G1 X46.695 Y43.299 E0.15796
G1 X47.389 Y43.223 E0.20504
G1 X47.83 Y43.212 E0.23479
G1 X71.854 Y43.212 E1.8551
G1 X72.552 Y43.222 E1.90218
G1 X73.136 Y43.271 E1.94171
G1 X73.707 Y43.398 E1.98116
G1 X74.256 Y43.602 E2.02066
G1 X74.772 Y43.879 E2.06016
G1 X75.245 Y44.223 E2.09961
G1 X75.667 Y44.629 E2.1391
G1 X76.03 Y45.088 E2.17857
G1 X76.327 Y45.593 E2.21809
G1 X76.552 Y46.133 E2.25754
G1 X76.702 Y46.699 E2.29703
G1 X76.777 Y47.389 E2.34384
G1 X76.788 Y47.83 E2.3736
G1 X76.788 Y71.817 E3.99141
G1 X76.779 Y72.544 E4.04044
G1 X76.731 Y73.128 E4.07997
G1 X76.605 Y73.699 E4.1194
G1 X76.402 Y74.248 E4.15888
G1 X76.127 Y74.765 E4.19838
G1 X75.783 Y75.238 E4.23782
G1 X75.378 Y75.661 E4.27732
G1 X74.92 Y76.025 E4.31678
G1 X74.416 Y76.323 E4.35627
G1 X73.876 Y76.549 E4.39575
G1 X73.31 Y76.7 E4.43526
G1 X72.611 Y76.777 E4.48269
G1 X72.17 Y76.788 E4.51244
G1 X48.152 Y76.788 E6.13234
G1 X47.454 Y76.779 E6.17942
G1 X46.87 Y76.731 E6.21894
G1 X46.299 Y76.605 E6.25838
G1 X45.75 Y76.402 E6.29786
G1 X45.234 Y76.125 E6.33736
G1 X44.76 Y75.782 E6.37682
G1 X44.337 Y75.377 E6.41632
G1 X43.974 Y74.918 E6.45579
G1 X43.676 Y74.414 E6.49528
G1 X43.45 Y73.874 E6.53476
G1 X43.3 Y73.308 E6.57425
G1 X43.223 Y72.607 E6.62181
G1 X43.212 Y72.158 E6.6521
G1 X43.212 Y48.116 E8.27362
G1 X43.221 Y47.451 E8.31848
G1 X43.269 Y46.868 E8.35793
G1 X43.396 Y46.296 E8.39745
G1 X43.6 Y45.747 E8.43695
G1 X43.876 Y45.231 E8.47642
G1 X44.22 Y44.758 E8.51587
G1 X44.34 Y44.633 E8.52755
G0 F720 X44.625 Y44.335
M204 S1000
M205 X30 Y30
G0 F1350 X45.127 Y44.583
M204 S500
M205 X10 Y10
G1 F900 X45.576 Y44.268 E8.56455
G1 X46.067 Y44.022 E8.60159
G1 X46.589 Y43.85 E8.63865
G1 X47.403 Y43.737 E8.69408
G1 X47.83 Y43.727 E8.72289
G1 X71.847 Y43.727 E10.34272
G1 X72.545 Y43.737 E10.3898
G1 X73.092 Y43.785 E10.42684
G1 X73.626 Y43.912 E10.46386
G1 X74.136 Y44.115 E10.50088
G1 X74.612 Y44.389 E10.53792
G1 X75.042 Y44.73 E10.57494
G1 X75.419 Y45.13 E10.61201
G1 X75.733 Y45.58 E10.64902
G1 X75.979 Y46.071 E10.68606
G1 X76.151 Y46.592 E10.72306
G1 X76.263 Y47.404 E10.77835
G1 X76.273 Y47.83 E10.80709
G1 X76.273 Y71.811 E12.42449
G1 X76.264 Y72.538 E12.47353
G1 X76.217 Y73.085 E12.51056
G1 X76.091 Y73.619 E12.54756
G1 X75.89 Y74.13 E12.5846
G1 X75.616 Y74.606 E12.62164
G1 X75.276 Y75.037 E12.65866
G1 X74.877 Y75.414 E12.69569
G1 X74.427 Y75.729 E12.73273
G1 X73.937 Y75.976 E12.76974
G1 X73.416 Y76.149 E12.80677
G1 X72.875 Y76.244 E12.84382
G1 X72.276 Y76.272 E12.88426
G1 X48.158 Y76.273 E14.51091
G1 X47.46 Y76.264 E14.55799
G1 X46.913 Y76.217 E14.59502
G1 X46.379 Y76.091 E14.63202
G1 X45.868 Y75.889 E14.66908
G1 X45.393 Y75.615 E14.70606
G1 X44.962 Y75.274 E14.74313
G1 X44.585 Y74.875 E14.78015
G1 X44.27 Y74.426 E14.81715
G1 X44.023 Y73.935 E14.85422
G1 X43.851 Y73.414 E14.89122
G1 X43.755 Y72.873 E14.92828
G1 X43.728 Y72.26 E14.96966
G1 X43.727 Y48.123 E16.59759
G1 X43.736 Y47.458 E16.64245
G1 X43.784 Y46.911 E16.67948
G1 X43.91 Y46.377 E16.71648
G1 X44.112 Y45.866 E16.75354
G1 X44.387 Y45.391 E16.79056
G1 X44.727 Y44.96 E16.82759
G1 X44.827 Y44.866 E16.83684
G0 F720 X45.127 Y44.583
M204 S1000
M205 X30 Y30
G0 F1350 X45.233 Y45.178
M204 S500
M205 X10 Y10
G1 F900 X45.624 Y44.851 E16.87122
G1 X46.062 Y44.59 E16.90561
G1 X46.536 Y44.4 E16.94005
G1 X47.033 Y44.286 E16.97444
G1 X47.739 Y44.243 E17.02215
G1 X71.84 Y44.242 E18.64765
G1 X72.538 Y44.252 E18.69473
G1 X73.046 Y44.3 E18.72914
G1 X73.54 Y44.425 E18.76351
G1 X74.009 Y44.627 E18.79795
G1 X74.44 Y44.899 E18.83233
G1 X74.824 Y45.236 E18.86678
G1 X75.15 Y45.628 E18.90117
G1 X75.411 Y46.066 E18.93556
G1 X75.601 Y46.539 E18.96994
G1 X75.714 Y47.037 E19.00438
G1 X75.757 Y47.738 E19.05175
G1 X75.758 Y71.804 E20.67489
G1 X75.749 Y72.531 E20.72392
G1 X75.703 Y73.039 E20.75833
G1 X75.578 Y73.534 E20.79276
G1 X75.377 Y74.003 E20.82717
G1 X75.106 Y74.435 E20.86157
G1 X74.77 Y74.819 E20.89598
G1 X74.379 Y75.146 E20.93036
G1 X73.941 Y75.409 E20.96482
G1 X73.468 Y75.599 E20.9992
G1 X72.971 Y75.714 E21.0336
G1 X72.261 Y75.757 E21.08158
G1 X48.165 Y75.758 E22.70674
G1 X47.467 Y75.749 E22.75382
G1 X46.959 Y75.702 E22.78823
G1 X46.464 Y75.577 E22.82266
G1 X45.996 Y75.376 E22.85701
G1 X45.564 Y75.105 E22.89141
G1 X45.18 Y74.769 E22.92582
G1 X44.853 Y74.377 E22.96025
G1 X44.591 Y73.939 E22.99468
G1 X44.4 Y73.466 E23.02908
G1 X44.286 Y72.969 E23.06347
G1 X44.243 Y72.246 E23.11232
G1 X44.242 Y48.13 E24.73883
G1 X44.251 Y47.465 E24.78369
G1 X44.298 Y46.957 E24.81809
G1 X44.424 Y46.462 E24.85254
G1 X44.625 Y45.994 E24.8869
G1 X44.897 Y45.562 E24.92133
G1 X44.961 Y45.488 E24.92793
G0 F720 X45.233 Y45.178
M204 S1000
M205 X30 Y30
G1 F2700 E20.92793
;MESH:flatsquare.stl
G0 F1350 X48.285 Y46.835
G0 X48.285 Y48.285
G0 X71.214 Y71.214
M204 S500
M205 X10 Y10
;TYPE:WALL-INNER
G1 F2700 E24.92793
G1 F900 X48.786 Y71.214 E26.44059
G1 X48.786 Y48.786 E27.95325
G1 X71.214 Y48.786 E29.46592
G1 X71.214 Y70.801 E30.95073
G0 F720 X71.214 Y71.214
M204 S1000
M205 X30 Y30
G0 F1350 X71.729 Y71.729
M204 S500
M205 X10 Y10
G1 F900 X48.271 Y71.729 E32.53286
G1 X48.271 Y48.271 E34.11499
G1 X71.729 Y48.271 E35.69712
G1 X71.729 Y71.316 E37.2514
G0 F720 X71.729 Y71.729
M204 S1000
M205 X30 Y30
G0 F1350 X72.243 Y72.243
M204 S500
M205 X10 Y10
;TYPE:WALL-OUTER
G1 F900 X47.757 Y72.243 E38.90287
G1 X47.757 Y47.757 E40.55433
G1 X72.243 Y47.757 E42.2058
G1 X72.243 Y71.83 E43.82941
G0 F720 X72.243 Y72.243
M204 S1000
M205 X30 Y30
G0 F1350 X71.993 Y72.243
G0 X71.659 Y71.659
G0 X70.71 Y70.71
M204 S500
M205 X10 Y10
;TYPE:SKIN
G1 F900 X49.29 Y70.71 E45.34632
G1 X49.29 Y49.29 E46.86323
G1 X70.71 Y49.29 E48.38015
G1 X70.71 Y70.297 E49.86781
G0 F720 X70.71 Y70.71
M204 S1000
M205 X30 Y30
G0 F1350 X70.477 Y50.084
M204 S500
M205 X10 Y10
G1 F900 X69.914 Y49.521 E49.9242
M204 S1000
M205 X30 Y30
G0 F1350 X69.186 Y49.521
M204 S500
M205 X10 Y10
G1 F900 X70.477 Y50.812 E50.05349
M204 S1000
M205 X30 Y30
G0 F1350 X70.477 Y51.541
M204 S500
M205 X10 Y10
G1 F900 X68.457 Y49.521 E50.2558
M204 S1000
M205 X30 Y30
G0 F1350 X67.729 Y49.521
M204 S500
M205 X10 Y10
G1 F900 X70.477 Y52.269 E50.53101
M204 S1000
M205 X30 Y30
G0 F1350 X70.477 Y52.997
M204 S500
M205 X10 Y10
G1 F900 X67.001 Y49.521 E50.87914
M204 S1000
M205 X30 Y30
G0 F1350 X66.272 Y49.521
M204 S500
M205 X10 Y10
G1 F900 X70.477 Y53.725 E51.30022
M204 S1000
M205 X30 Y30
G0 F1350 X70.477 Y54.454
M204 S500
M205 X10 Y10
G1 F900 X65.544 Y49.521 E51.79427
M204 S1000
M205 X30 Y30
G0 F1350 X64.816 Y49.521
M204 S500
M205 X10 Y10
G1 F900 X70.477 Y55.182 E52.36123
M204 S1000
M205 X30 Y30
G0 F1350 X70.477 Y55.91
M204 S500
M205 X10 Y10
G1 F900 X64.087 Y49.521 E53.00114
M204 S1000
M205 X30 Y30
G0 F1350 X63.359 Y49.521
M204 S500
M205 X10 Y10
G1 F900 X70.477 Y56.639 E53.71402
M204 S1000
M205 X30 Y30
G0 F1350 X70.477 Y57.367
M204 S500
M205 X10 Y10
G1 F900 X62.631 Y49.521 E54.4998
M204 S1000
M205 X30 Y30
G0 F1350 X61.902 Y49.521
M204 S500
M205 X10 Y10
G1 F900 X70.477 Y58.095 E55.35855
M204 S1000
M205 X30 Y30
G0 F1350 X70.477 Y58.824
M204 S500
M205 X10 Y10
G1 F900 X61.174 Y49.521 E56.29026
M204 S1000
M205 X30 Y30
G0 F1350 X60.446 Y49.521
M204 S500
M205 X10 Y10
G1 F900 X70.477 Y59.552 E57.29487
M204 S1000
M205 X30 Y30
G0 F1350 X70.477 Y60.28
M204 S500
M205 X10 Y10
G1 F900 X59.717 Y49.521 E58.37245
M204 S1000
M205 X30 Y30
G0 F1350 X58.989 Y49.521
M204 S500
M205 X10 Y10
G1 F900 X70.477 Y61.009 E59.52299
M204 S1000
M205 X30 Y30
G0 F1350 X70.477 Y61.737
M204 S500
M205 X10 Y10
G1 F900 X58.261 Y49.521 E60.74643
M204 S1000
M205 X30 Y30
G0 F1350 X57.533 Y49.521
M204 S500
M205 X10 Y10
G1 F900 X70.477 Y62.465 E62.04279
M204 S1000
M205 X30 Y30
G0 F1350 X70.477 Y63.194
M204 S500
M205 X10 Y10
G1 F900 X56.804 Y49.521 E63.41216
M204 S1000
M205 X30 Y30
G0 F1350 X56.076 Y49.521
M204 S500
M205 X10 Y10
G1 F900 X70.477 Y63.922 E64.85444
M204 S1000
M205 X30 Y30
G0 F1350 X70.477 Y64.65
M204 S500
M205 X10 Y10
G1 F900 X55.348 Y49.521 E66.36962
M204 S1000
M205 X30 Y30
G0 F1350 X54.619 Y49.521
M204 S500
M205 X10 Y10
G1 F900 X70.477 Y65.379 E67.95782
M204 S1000
M205 X30 Y30
G0 F1350 X70.477 Y66.107
M204 S500
M205 X10 Y10
G1 F900 X53.891 Y49.521 E69.61893
M204 S1000
M205 X30 Y30
G0 F1350 X53.163 Y49.521
M204 S500
M205 X10 Y10
G1 F900 X70.477 Y66.835 E71.35295
M204 S1000
M205 X30 Y30
G0 F1350 X70.477 Y67.564
M204 S500
M205 X10 Y10
G1 F900 X52.434 Y49.521 E73.15997
M204 S1000
M205 X30 Y30
G0 F1350 X51.706 Y49.521
M204 S500
M205 X10 Y10
G1 F900 X70.477 Y68.292 E75.03991
M204 S1000
M205 X30 Y30
G0 F1350 X70.477 Y69.02
M204 S500
M205 X10 Y10
G1 F900 X50.978 Y49.521 E76.99276
M204 S1000
M205 X30 Y30
G0 F1350 X50.249 Y49.521
M204 S500
M205 X10 Y10
G1 F900 X70.477 Y69.749 E79.01862
M204 S1000
M205 X30 Y30
G0 F1350 X70.477 Y70.477
M204 S500
M205 X10 Y10
G1 F900 X49.521 Y49.521 E81.11739
M204 S1000
M205 X30 Y30
G0 F1350 X49.521 Y50.249
M204 S500
M205 X10 Y10
G1 F900 X69.749 Y70.477 E83.14324
M204 S1000
M205 X30 Y30
G0 F1350 X69.02 Y70.477
M204 S500
M205 X10 Y10
G1 F900 X49.521 Y50.978 E85.09609
M204 S1000
M205 X30 Y30
G0 F1350 X49.521 Y51.706
M204 S500
M205 X10 Y10
G1 F900 X68.292 Y70.477 E86.97603
M204 S1000
M205 X30 Y30
G0 F1350 X67.564 Y70.477
M204 S500
M205 X10 Y10
G1 F900 X49.521 Y52.434 E88.78306
M204 S1000
M205 X30 Y30
G0 F1350 X49.521 Y53.163
M204 S500
M205 X10 Y10
G1 F900 X66.835 Y70.477 E90.51708
M204 S1000
M205 X30 Y30
G0 F1350 X66.107 Y70.477
M204 S500
M205 X10 Y10
G1 F900 X49.521 Y53.891 E92.17818
M204 S1000
M205 X30 Y30
G0 F1350 X49.521 Y54.619
M204 S500
M205 X10 Y10
G1 F900 X65.379 Y70.477 E93.76638
M204 S1000
M205 X30 Y30
G0 F1350 X64.65 Y70.477
M204 S500
M205 X10 Y10
G1 F900 X49.521 Y55.348 E95.28157
M204 S1000
M205 X30 Y30
G0 F1350 X49.521 Y56.076
M204 S500
M205 X10 Y10
G1 F900 X63.922 Y70.477 E96.72385
M204 S1000
M205 X30 Y30
G0 F1350 X63.194 Y70.477
M204 S500
M205 X10 Y10
G1 F900 X49.521 Y56.804 E98.09321
M204 S1000
M205 X30 Y30
G0 F1350 X49.521 Y57.533
M204 S500
M205 X10 Y10
G1 F900 X62.465 Y70.477 E99.38957
M204 S1000
M205 X30 Y30
G0 F1350 X61.737 Y70.477
M204 S500
M205 X10 Y10
G1 F900 X49.521 Y58.261 E100.61302
M204 S1000
M205 X30 Y30
G0 F1350 X49.521 Y58.989
M204 S500
M205 X10 Y10
G1 F900 X61.009 Y70.477 E101.76355
M204 S1000
M205 X30 Y30
G0 F1350 X60.28 Y70.477
M204 S500
M205 X10 Y10
G1 F900 X49.521 Y59.717 E102.84113
M204 S1000
M205 X30 Y30
G0 F1350 X49.521 Y60.446
M204 S500
M205 X10 Y10
G1 F900 X59.552 Y70.477 E103.84575
M204 S1000
M205 X30 Y30
G0 F1350 X58.824 Y70.477
M204 S500
M205 X10 Y10
G1 F900 X49.521 Y61.174 E104.77745
M204 S1000
M205 X30 Y30
G0 F1350 X49.521 Y61.902
M204 S500
M205 X10 Y10
G1 F900 X58.095 Y70.477 E105.6362
M204 S1000
M205 X30 Y30
G0 F1350 X57.367 Y70.477
M204 S500
M205 X10 Y10
G1 F900 X49.521 Y62.631 E106.42199
M204 S1000
M205 X30 Y30
G0 F1350 X49.521 Y63.359
M204 S500
M205 X10 Y10
G1 F900 X56.639 Y70.477 E107.13486
M204 S1000
M205 X30 Y30
G0 F1350 X55.91 Y70.477
M204 S500
M205 X10 Y10
G1 F900 X49.521 Y64.087 E107.77478
M204 S1000
M205 X30 Y30
G0 F1350 X49.521 Y64.816
M204 S500
M205 X10 Y10
G1 F900 X55.182 Y70.477 E108.34173
M204 S1000
M205 X30 Y30
G0 F1350 X54.454 Y70.477
M204 S500
M205 X10 Y10
G1 F900 X49.521 Y65.544 E108.83578
M204 S1000
M205 X30 Y30
G0 F1350 X49.521 Y66.272
M204 S500
M205 X10 Y10
G1 F900 X53.725 Y70.477 E109.25687
M204 S1000
M205 X30 Y30
G0 F1350 X52.997 Y70.477
M204 S500
M205 X10 Y10
G1 F900 X49.521 Y67.001 E109.60499
M204 S1000
M205 X30 Y30
G0 F1350 X49.521 Y67.729
M204 S500
M205 X10 Y10
G1 F900 X52.269 Y70.477 E109.88021
M204 S1000
M205 X30 Y30
G0 F1350 X51.541 Y70.477
M204 S500
M205 X10 Y10
G1 F900 X49.521 Y68.457 E110.08251
M204 S1000
M205 X30 Y30
G0 F1350 X49.521 Y69.186
M204 S500
M205 X10 Y10
G1 F900 X50.812 Y70.477 E110.21181
M204 S1000
M205 X30 Y30
G0 F1350 X50.084 Y70.477
M204 S500
M205 X10 Y10
G1 F900 X49.521 Y69.914 E110.26819
;TIME_ELAPSED:116.093131
G1 F2700 E106.26819
M140 S0
M204 S4000
M205 X20 Y20
M104 S0
M140 S0
;Retract the filament
G92 E1
G1 E-1 F300
G28 X0 Y0
M84
M82 ;absolute extrusion mode
M104 S0
;End of Gcode
;SETTING_3 {"extruder_quality": ["[general]\\nversion = 4\\nname = 0.5-pla-hot\\
;SETTING_3 ndefinition = custom\\n\\n[metadata]\\nposition = 0\\nquality_type = 
;SETTING_3 verydraft\\ntype = quality_changes\\nintent_category = default\\nsett
;SETTING_3 ing_version = 16\\n\\n[values]\\nacceleration_print = 500\\naccelerat
;SETTING_3 ion_travel = 2000\\nacceleration_travel_layer_0 = 1000.0\\nbottom_lay
;SETTING_3 ers = 3\\nbrim_outside_only = False\\nbrim_width = 3\\ncoasting_enabl
;SETTING_3 e = True\\ncoasting_speed = 80\\ncool_fan_full_layer = 3\\nfill_perim
;SETTING_3 eter_gaps = nowhere\\nhole_xy_offset = 0\\ninfill_pattern = lines\\ni
;SETTING_3 nfill_sparse_density = 30\\ninfill_wipe_dist = 0.3\\ninitial_layer_li
;SETTING_3 ne_width_factor = 103.0\\njerk_print = 10\\nline_width = 0.5\\nmateri
;SETTING_3 al_final_print_temperature = 190\\nmaterial_flow = 100\\nmaterial_flo
;SETTING_3 w_layer_0 = 105\\nmaterial_initial_print_temperature = 210\\nmaterial
;SETTING_3 _print_temperature = 190\\nmin_infill_area = 30\\nretraction_amount =
;SETTING_3  4\\nretraction_extra_prime_amount = 0.0\\nretraction_min_travel = 1\
;SETTING_3 \nretraction_speed = 45\\nskin_line_width = 0.5\\nskin_material_flow 
;SETTING_3 = 105\\nskirt_brim_material_flow = 100\\nskirt_line_count = 2\\nsmall
;SETTING_3 _feature_speed_factor = 30\\nsmall_hole_max_size = 5\\nspeed_layer_0 
;SETTING_3 = 15.0\\nspeed_print = 40\\nspeed_travel = 60\\nsupport_infill_rate =
;SETTING_3  20\\nsupport_top_distance = 0.15\\nsupport_use_towers = False\\ntop_
;SETTING_3 layers = 3\\ntravel_compensate_overlapping_walls_enabled = False\\nwa
;SETTING_3 ll_line_count = 3\\nwall_line_width_0 = 0.5\\nwall_line_width_x = 0.5
;SETTING_3 \\nxy_offset = -0.2\\nxy_offset_layer_0 = 0\\n\\n"], "global_quality"
;SETTING_3 : "[general]\\nversion = 4\\nname = 0.5-pla-hot\\ndefinition = custom
;SETTING_3 \\n\\n[metadata]\\nquality_type = verydraft\\ntype = quality_changes\
;SETTING_3 \nsetting_version = 16\\n\\n[values]\\nacceleration_enabled = True\\n
;SETTING_3 adhesion_type = skirt\\njerk_enabled = True\\nlayer_height = 0.25\\nl
;SETTING_3 ayer_height_0 = 0.3\\nmaterial_bed_temperature = 60\\nmaterial_bed_te
;SETTING_3 mperature_layer_0 = 60\\nsupport_enable = False\\ntravel_retract_befo
;SETTING_3 re_outer_wall = True\\n\\n"}
