;FLAVOR:Marlin
;TIME:979
;Filament used: 0.837382m
;Layer height: 0.25
;MINX:41.228
;MINY:41.228
;MINZ:0.3
;MAXX:78.772
;MAXY:78.772
;MAXZ:27.05
;Generated with Cura_SteamEngine 4.8.0
M140 S60
M105
M190 S60
M104 S190
M105
M109 S190
M82 ;absolute extrusion mode
G28 ;Home
G1 Z15.0 F6000 ;Move the platform down 15mm
;Prime the extruder
G92 E0
G1 F200 E3
G92 E0
G92 E0
G92 E0
G1 F2700 E-4
;LAYER_COUNT:108
;LAYER:0
M107
M204 S1000
M205 X30 Y30
G0 F1350 X42.228 Y42.461 Z0.3
M204 S500
M205 X10 Y10
;TYPE:SKIRT
G1 F2700 E0
G1 F900 X42.628 Y42.084 E0.03531
G1 X43.077 Y41.769 E0.07054
G1 X43.568 Y41.523 E0.10581
G1 X44.09 Y41.351 E0.14112
G1 X44.904 Y41.238 E0.1939
G1 X45.331 Y41.228 E0.22134
G1 X74.346 Y41.228 E2.08508
G1 X75.044 Y41.238 E2.12992
G1 X75.591 Y41.286 E2.16519
G1 X76.125 Y41.413 E2.20045
G1 X76.635 Y41.616 E2.23571
G1 X77.111 Y41.89 E2.27098
G1 X77.541 Y42.231 E2.30624
G1 X77.918 Y42.631 E2.34154
G1 X78.232 Y43.081 E2.37679
G1 X78.478 Y43.572 E2.41206
G1 X78.65 Y44.093 E2.44731
G1 X78.762 Y44.905 E2.49996
G1 X78.772 Y45.331 E2.52733
G1 X78.772 Y74.31 E4.38876
G1 X78.763 Y75.037 E4.43546
G1 X78.716 Y75.584 E4.47072
G1 X78.59 Y76.118 E4.50597
G1 X78.389 Y76.629 E4.54124
G1 X78.115 Y77.105 E4.57652
G1 X77.775 Y77.536 E4.61178
G1 X77.376 Y77.913 E4.64704
G1 X76.926 Y78.228 E4.68232
G1 X76.436 Y78.475 E4.71757
G1 X75.915 Y78.648 E4.75283
G1 X75.374 Y78.743 E4.78811
G1 X74.775 Y78.771 E4.82663
G1 X45.659 Y78.772 E6.69686
G1 X44.961 Y78.763 E6.7417
G1 X44.414 Y78.716 E6.77696
G1 X43.88 Y78.59 E6.8122
G1 X43.369 Y78.388 E6.8475
G1 X42.894 Y78.114 E6.88272
G1 X42.463 Y77.773 E6.91802
G1 X42.086 Y77.374 E6.95328
G1 X41.771 Y76.925 E6.98851
G1 X41.524 Y76.434 E7.02382
G1 X41.352 Y75.913 E7.05906
G1 X41.256 Y75.372 E7.09435
G1 X41.229 Y74.759 E7.13377
G1 X41.228 Y45.624 E9.00521
G1 X41.237 Y44.959 E9.04793
G1 X41.285 Y44.412 E9.0832
G1 X41.411 Y43.878 E9.11845
G1 X41.613 Y43.367 E9.15374
G1 X41.888 Y42.892 E9.189
G1 X41.972 Y42.785 E9.19774
G0 F720 X42.228 Y42.461
M204 S1000
M205 X30 Y30
G0 F1350 X42.734 Y42.679
M204 S500
M205 X10 Y10
G1 F900 X43.125 Y42.352 E9.23048
G1 X43.563 Y42.091 E9.26323
G1 X44.037 Y41.901 E9.29603
G1 X44.534 Y41.787 E9.32878
G1 X45.24 Y41.744 E9.37422
G1 X74.339 Y41.743 E11.24335
G1 X75.037 Y41.753 E11.28819
G1 X75.545 Y41.801 E11.32097
G1 X76.039 Y41.926 E11.3537
G1 X76.508 Y42.128 E11.3865
G1 X76.939 Y42.4 E11.41923
G1 X77.323 Y42.737 E11.45205
G1 X77.649 Y43.129 E11.4848
G1 X77.91 Y43.567 E11.51755
G1 X78.1 Y44.04 E11.55029
G1 X78.213 Y44.538 E11.5831
G1 X78.256 Y45.239 E11.62821
G1 X78.257 Y74.303 E13.49509
G1 X78.248 Y75.03 E13.5418
G1 X78.202 Y75.538 E13.57456
G1 X78.077 Y76.033 E13.60735
G1 X77.876 Y76.502 E13.64013
G1 X77.605 Y76.934 E13.67289
G1 X77.269 Y77.318 E13.70566
G1 X76.878 Y77.645 E13.7384
G1 X76.44 Y77.908 E13.77122
G1 X75.967 Y78.098 E13.80396
G1 X75.47 Y78.213 E13.83673
G1 X74.76 Y78.256 E13.88242
G1 X45.666 Y78.257 E15.75123
G1 X44.968 Y78.248 E15.79607
G1 X44.46 Y78.201 E15.82884
G1 X43.965 Y78.076 E15.86163
G1 X43.497 Y77.875 E15.89435
G1 X43.065 Y77.604 E15.92711
G1 X42.681 Y77.268 E15.95988
G1 X42.354 Y76.876 E15.99267
G1 X42.092 Y76.438 E16.02546
G1 X41.901 Y75.965 E16.05822
G1 X41.787 Y75.468 E16.09098
G1 X41.744 Y74.745 E16.1375
G1 X41.743 Y45.631 E18.0076
G1 X41.752 Y44.966 E18.05032
G1 X41.799 Y44.458 E18.08309
G1 X41.925 Y43.963 E18.1159
G1 X42.126 Y43.495 E18.14861
G1 X42.398 Y43.063 E18.1814
G1 X42.462 Y42.989 E18.18769
G0 F720 X42.734 Y42.679
M204 S1000
M205 X30 Y30
G1 F2700 E14.18769
;MESH:cube.stl
G0 F1350 X45.272 Y44.336
G0 X45.272 Y45.272
G0 X74.642 Y74.672
G0 X74.742 Y74.742
M204 S500
M205 X10 Y10
;TYPE:WALL-OUTER
G1 F2700 E18.18769
G1 F900 X45.258 Y74.742 E19.76584
G1 X45.258 Y45.258 E21.344
G1 X74.742 Y45.258 E22.92216
G1 X74.742 Y74.329 E24.47821
G0 F720 X74.742 Y74.742
M204 S1000
M205 X30 Y30
G0 F1350 X74.492 Y74.742
G0 X74.238 Y74.238
M204 S500
M205 X10 Y10
;TYPE:SKIN
G1 F900 X45.762 Y74.238 E26.30733
G1 X45.762 Y45.762 E28.13644
G1 X74.238 Y45.762 E29.96556
G1 X74.238 Y73.825 E31.76815
G0 F720 X74.238 Y74.238
M204 S1000
M205 X30 Y30
G0 F1350 X74.005 Y46.329
M204 S500
M205 X10 Y10
G1 F900 X73.669 Y45.993 E31.79867
M204 S1000
M205 X30 Y30
G0 F1350 X72.941 Y45.993
M204 S500
M205 X10 Y10
G1 F900 X74.005 Y47.057 E31.89533
M204 S1000
M205 X30 Y30
G0 F1350 X74.005 Y47.786
M204 S500
M205 X10 Y10
G1 F900 X72.213 Y45.993 E32.05816
M204 S1000
M205 X30 Y30
G0 F1350 X71.484 Y45.993
M204 S500
M205 X10 Y10
G1 F900 X74.005 Y48.514 E32.28716
M204 S1000
M205 X30 Y30
G0 F1350 X74.005 Y49.242
M204 S500
M205 X10 Y10
G1 F900 X70.756 Y45.993 E32.5823
M204 S1000
M205 X30 Y30
G0 F1350 X70.028 Y45.993
M204 S500
M205 X10 Y10
G1 F900 X74.005 Y49.971 E32.94362
M204 S1000
M205 X30 Y30
G0 F1350 X74.005 Y50.699
M204 S500
M205 X10 Y10
G1 F900 X69.3 Y45.993 E33.37107
M204 S1000
M205 X30 Y30
G0 F1350 X68.571 Y45.993
M204 S500
M205 X10 Y10
G1 F900 X74.005 Y51.427 E33.86469
M204 S1000
M205 X30 Y30
G0 F1350 X74.005 Y52.156
M204 S500
M205 X10 Y10
G1 F900 X67.843 Y45.993 E34.4245
M204 S1000
M205 X30 Y30
G0 F1350 X67.115 Y45.993
M204 S500
M205 X10 Y10
G1 F900 X74.005 Y52.884 E35.05043
M204 S1000
M205 X30 Y30
G0 F1350 X74.005 Y53.612
M204 S500
M205 X10 Y10
G1 F900 X66.386 Y45.993 E35.74254
M204 S1000
M205 X30 Y30
G0 F1350 X65.658 Y45.993
M204 S500
M205 X10 Y10
G1 F900 X74.005 Y54.341 E36.50083
M204 S1000
M205 X30 Y30
G0 F1350 X74.005 Y55.069
M204 S500
M205 X10 Y10
G1 F900 X64.93 Y45.993 E37.32525
M204 S1000
M205 X30 Y30
G0 F1350 X64.201 Y45.993
M204 S500
M205 X10 Y10
G1 F900 X74.005 Y55.797 E38.21584
M204 S1000
M205 X30 Y30
G0 F1350 X74.005 Y56.526
M204 S500
M205 X10 Y10
G1 F900 X63.473 Y45.993 E39.17262
M204 S1000
M205 X30 Y30
G0 F1350 X62.745 Y45.993
M204 S500
M205 X10 Y10
G1 F900 X74.005 Y57.254 E40.19552
M204 S1000
M205 X30 Y30
G0 F1350 X74.005 Y57.982
M204 S500
M205 X10 Y10
G1 F900 X62.016 Y45.993 E41.2846
M204 S1000
M205 X30 Y30
G0 F1350 X61.288 Y45.993
M204 S500
M205 X10 Y10
G1 F900 X74.005 Y58.711 E42.43986
M204 S1000
M205 X30 Y30
G0 F1350 X74.005 Y59.439
M204 S500
M205 X10 Y10
G1 F900 X60.56 Y45.993 E43.66125
M204 S1000
M205 X30 Y30
G0 F1350 X59.831 Y45.993
M204 S500
M205 X10 Y10
G1 F900 X74.005 Y60.167 E44.94882
M204 S1000
M205 X30 Y30
G0 F1350 X74.005 Y60.896
M204 S500
M205 X10 Y10
G1 F900 X59.103 Y45.993 E46.30256
M204 S1000
M205 X30 Y30
G0 F1350 X58.375 Y45.993
M204 S500
M205 X10 Y10
G1 F900 X74.005 Y61.624 E47.72244
M204 S1000
M205 X30 Y30
G0 F1350 X74.005 Y62.352
M204 S500
M205 X10 Y10
G1 F900 X57.646 Y45.993 E49.20849
M204 S1000
M205 X30 Y30
G0 F1350 X56.918 Y45.993
M204 S500
M205 X10 Y10
G1 F900 X74.005 Y63.08 E50.76068
M204 S1000
M205 X30 Y30
G0 F1350 X74.005 Y63.809
M204 S500
M205 X10 Y10
G1 F900 X56.19 Y45.993 E52.37904
M204 S1000
M205 X30 Y30
G0 F1350 X55.461 Y45.993
M204 S500
M205 X10 Y10
G1 F900 X74.005 Y64.537 E54.06358
M204 S1000
M205 X30 Y30
G0 F1350 X74.005 Y65.265
M204 S500
M205 X10 Y10
G1 F900 X54.733 Y45.993 E55.81425
M204 S1000
M205 X30 Y30
G0 F1350 X54.005 Y45.993
M204 S500
M205 X10 Y10
G1 F900 X74.005 Y65.994 E57.63109
M204 S1000
M205 X30 Y30
G0 F1350 X74.005 Y66.722
M204 S500
M205 X10 Y10
G1 F900 X53.276 Y45.993 E59.51412
M204 S1000
M205 X30 Y30
G0 F1350 X52.548 Y45.993
M204 S500
M205 X10 Y10
G1 F900 X74.005 Y67.45 E61.46327
M204 S1000
M205 X30 Y30
G0 F1350 X74.005 Y68.179
M204 S500
M205 X10 Y10
G1 F900 X51.82 Y45.993 E63.4786
M204 S1000
M205 X30 Y30
G0 F1350 X51.092 Y45.993
M204 S500
M205 X10 Y10
G1 F900 X74.005 Y68.907 E65.56007
M204 S1000
M205 X30 Y30
G0 F1350 X74.005 Y69.635
M204 S500
M205 X10 Y10
G1 F900 X50.363 Y45.993 E67.70771
M204 S1000
M205 X30 Y30
G0 F1350 X49.635 Y45.993
M204 S500
M205 X10 Y10
G1 F900 X74.005 Y70.364 E69.92153
M204 S1000
M205 X30 Y30
G0 F1350 X74.005 Y71.092
M204 S500
M205 X10 Y10
G1 F900 X48.907 Y45.993 E72.20148
M204 S1000
M205 X30 Y30
G0 F1350 X48.178 Y45.993
M204 S500
M205 X10 Y10
G1 F900 X74.005 Y71.82 E74.5476
M204 S1000
M205 X30 Y30
G0 F1350 X74.005 Y72.549
M204 S500
M205 X10 Y10
G1 F900 X47.45 Y45.993 E76.95991
M204 S1000
M205 X30 Y30
G0 F1350 X46.722 Y45.993
M204 S500
M205 X10 Y10
G1 F900 X74.005 Y73.277 E79.43834
M204 S1000
M205 X30 Y30
G0 F1350 X74.005 Y74.005
M204 S500
M205 X10 Y10
G1 F900 X45.993 Y45.993 E81.98296
M204 S1000
M205 X30 Y30
G0 F1350 X45.993 Y46.722
M204 S500
M205 X10 Y10
G1 F900 X73.276 Y74.005 E84.46135
M204 S1000
M205 X30 Y30
G0 F1350 X72.548 Y74.005
M204 S500
M205 X10 Y10
G1 F900 X45.993 Y47.45 E86.8736
M204 S1000
M205 X30 Y30
G0 F1350 X45.993 Y48.178
M204 S500
M205 X10 Y10
G1 F900 X71.82 Y74.005 E89.21973
M204 S1000
M205 X30 Y30
G0 F1350 X71.091 Y74.005
M204 S500
M205 X10 Y10
G1 F900 X45.993 Y48.907 E91.49964
M204 S1000
M205 X30 Y30
G0 F1350 X45.993 Y49.635
M204 S500
M205 X10 Y10
G1 F900 X70.363 Y74.005 E93.71341
M204 S1000
M205 X30 Y30
G0 F1350 X69.635 Y74.005
M204 S500
M205 X10 Y10
G1 F900 X45.993 Y50.363 E95.86105
M204 S1000
M205 X30 Y30
G0 F1350 X45.993 Y51.092
M204 S500
M205 X10 Y10
G1 F900 X68.906 Y74.005 E97.94247
M204 S1000
M205 X30 Y30
G0 F1350 X68.178 Y74.005
M204 S500
M205 X10 Y10
G1 F900 X45.993 Y51.82 E99.95776
M204 S1000
M205 X30 Y30
G0 F1350 X45.993 Y52.548
M204 S500
M205 X10 Y10
G1 F900 X67.45 Y74.005 E101.90691
M204 S1000
M205 X30 Y30
G0 F1350 X66.721 Y74.005
M204 S500
M205 X10 Y10
G1 F900 X45.993 Y53.276 E103.78989
M204 S1000
M205 X30 Y30
G0 F1350 X45.993 Y54.005
M204 S500
M205 X10 Y10
G1 F900 X65.993 Y74.005 E105.60669
M204 S1000
M205 X30 Y30
G0 F1350 X65.265 Y74.005
M204 S500
M205 X10 Y10
G1 F900 X45.993 Y54.733 E107.35736
M204 S1000
M205 X30 Y30
G0 F1350 X45.993 Y55.461
M204 S500
M205 X10 Y10
G1 F900 X64.536 Y74.005 E109.04185
M204 S1000
M205 X30 Y30
G0 F1350 X63.808 Y74.005
M204 S500
M205 X10 Y10
G1 F900 X45.993 Y56.19 E110.66017
M204 S1000
M205 X30 Y30
G0 F1350 X45.993 Y56.918
M204 S500
M205 X10 Y10
G1 F900 X63.08 Y74.005 E112.21235
M204 S1000
M205 X30 Y30
G0 F1350 X62.351 Y74.005
M204 S500
M205 X10 Y10
G1 F900 X45.993 Y57.646 E113.69836
M204 S1000
M205 X30 Y30
G0 F1350 X45.993 Y58.375
M204 S500
M205 X10 Y10
G1 F900 X61.623 Y74.005 E115.11819
M204 S1000
M205 X30 Y30
G0 F1350 X60.895 Y74.005
M204 S500
M205 X10 Y10
G1 F900 X45.993 Y59.103 E116.47189
M204 S1000
M205 X30 Y30
G0 F1350 X45.993 Y59.831
M204 S500
M205 X10 Y10
G1 F900 X60.167 Y74.005 E117.75946
M204 S1000
M205 X30 Y30
G0 F1350 X59.438 Y74.005
M204 S500
M205 X10 Y10
G1 F900 X45.993 Y60.56 E118.9808
M204 S1000
M205 X30 Y30
G0 F1350 X45.993 Y61.288
M204 S500
M205 X10 Y10
G1 F900 X58.71 Y74.005 E120.13602
M204 S1000
M205 X30 Y30
G0 F1350 X57.982 Y74.005
M204 S500
M205 X10 Y10
G1 F900 X45.993 Y62.016 E121.2251
M204 S1000
M205 X30 Y30
G0 F1350 X45.993 Y62.745
M204 S500
M205 X10 Y10
G1 F900 X57.253 Y74.005 E122.24796
M204 S1000
M205 X30 Y30
G0 F1350 X56.525 Y74.005
M204 S500
M205 X10 Y10
G1 F900 X45.993 Y63.473 E123.20469
M204 S1000
M205 X30 Y30
G0 F1350 X45.993 Y64.201
M204 S500
M205 X10 Y10
G1 F900 X55.797 Y74.005 E124.09528
M204 S1000
M205 X30 Y30
G0 F1350 X55.068 Y74.005
M204 S500
M205 X10 Y10
G1 F900 X45.993 Y64.93 E124.91965
M204 S1000
M205 X30 Y30
G0 F1350 X45.993 Y65.658
M204 S500
M205 X10 Y10
G1 F900 X54.34 Y74.005 E125.6779
M204 S1000
M205 X30 Y30
G0 F1350 X53.612 Y74.005
M204 S500
M205 X10 Y10
G1 F900 X45.993 Y66.386 E126.37001
M204 S1000
M205 X30 Y30
G0 F1350 X45.993 Y67.115
M204 S500
M205 X10 Y10
G1 F900 X52.883 Y74.005 E126.9959
M204 S1000
M205 X30 Y30
G0 F1350 X52.155 Y74.005
M204 S500
M205 X10 Y10
G1 F900 X45.993 Y67.843 E127.55565
M204 S1000
M205 X30 Y30
G0 F1350 X45.993 Y68.571
M204 S500
M205 X10 Y10
G1 F900 X51.427 Y74.005 E128.04928
M204 S1000
M205 X30 Y30
G0 F1350 X50.698 Y74.005
M204 S500
M205 X10 Y10
G1 F900 X45.993 Y69.3 E128.47668
M204 S1000
M205 X30 Y30
G0 F1350 X45.993 Y70.028
M204 S500
M205 X10 Y10
G1 F900 X49.97 Y74.005 E128.83795
M204 S1000
M205 X30 Y30
G0 F1350 X49.242 Y74.005
M204 S500
M205 X10 Y10
G1 F900 X45.993 Y70.756 E129.13309
M204 S1000
M205 X30 Y30
G0 F1350 X45.993 Y71.484
M204 S500
M205 X10 Y10
G1 F900 X48.513 Y74.005 E129.36205
M204 S1000
M205 X30 Y30
G0 F1350 X47.785 Y74.005
M204 S500
M205 X10 Y10
G1 F900 X45.993 Y72.213 E129.52484
M204 S1000
M205 X30 Y30
G0 F1350 X45.993 Y72.941
M204 S500
M205 X10 Y10
G1 F900 X47.057 Y74.005 E129.62149
M204 S1000
M205 X30 Y30
G0 F1350 X46.328 Y74.005
M204 S500
M205 X10 Y10
G1 F900 X45.993 Y73.669 E129.65197
M204 S1000
M205 X30 Y30
;MESH:NONMESH
G0 F600 X45.993 Y73.669 Z0.55
G0 F1350 X74.549 Y74.549
;TIME_ELAPSED:148.559987
;LAYER:1
M106 S127.5
M204 S500
M205 X10 Y10
;TYPE:WALL-OUTER
;MESH:cube.stl
G1 F1050 X45.451 Y74.549 E130.91208
G1 X45.451 Y45.451 E132.17219
G1 X74.549 Y45.451 E133.4323
G1 X74.549 Y74.037 E134.67024
G0 F840 X74.549 Y74.549
M204 S1500
M205 X30 Y30
G0 F2475 X74.299 Y74.549
G0 X74.059 Y74.059
M204 S500
M205 X10 Y10
;TYPE:SKIN
G1 F1050 X45.941 Y74.059 E136.1315
G1 X45.941 Y45.941 E137.59276
G1 X74.059 Y45.941 E139.05403
G1 X74.059 Y73.547 E140.48868
G0 F840 X74.059 Y74.059
M204 S1500
M205 X30 Y30
G0 F2475 X73.244 Y73.833
M204 S500
M205 X10 Y10
G1 F1050 X73.833 Y73.244 E140.53197
M204 S1500
M205 X30 Y30
G0 F2475 X73.833 Y72.537
M204 S500
M205 X10 Y10
G1 F1050 X72.537 Y73.833 E140.62722
M204 S1500
M205 X30 Y30
G0 F2475 X71.83 Y73.833
M204 S500
M205 X10 Y10
G1 F1050 X73.833 Y71.83 E140.77443
M204 S1500
M205 X30 Y30
G0 F2475 X73.833 Y71.123
M204 S500
M205 X10 Y10
G1 F1050 X71.122 Y73.833 E140.97364
M204 S1500
M205 X30 Y30
G0 F2475 X70.415 Y73.833
M204 S500
M205 X10 Y10
G1 F1050 X73.833 Y70.416 E141.22481
M204 S1500
M205 X30 Y30
G0 F2475 X73.833 Y69.709
M204 S500
M205 X10 Y10
G1 F1050 X69.708 Y73.833 E141.52794
M204 S1500
M205 X30 Y30
G0 F2475 X69.001 Y73.833
M204 S500
M205 X10 Y10
G1 F1050 X73.833 Y69.002 E141.88303
M204 S1500
M205 X30 Y30
G0 F2475 X73.833 Y68.295
M204 S500
M205 X10 Y10
G1 F1050 X68.294 Y73.833 E142.29009
M204 S1500
M205 X30 Y30
G0 F2475 X67.587 Y73.833
M204 S500
M205 X10 Y10
G1 F1050 X73.833 Y67.588 E142.7491
M204 S1500
M205 X30 Y30
G0 F2475 X73.833 Y66.88
M204 S500
M205 X10 Y10
G1 F1050 X66.88 Y73.833 E143.26011
M204 S1500
M205 X30 Y30
G0 F2475 X66.173 Y73.833
M204 S500
M205 X10 Y10
G1 F1050 X73.833 Y66.173 E143.82309
M204 S1500
M205 X30 Y30
G0 F2475 X73.833 Y65.466
M204 S500
M205 X10 Y10
G1 F1050 X65.466 Y73.833 E144.43802
M204 S1500
M205 X30 Y30
G0 F2475 X64.758 Y73.833
M204 S500
M205 X10 Y10
G1 F1050 X73.833 Y64.759 E145.10495
M204 S1500
M205 X30 Y30
G0 F2475 X73.833 Y64.052
M204 S500
M205 X10 Y10
G1 F1050 X64.051 Y73.833 E145.82385
M204 S1500
M205 X30 Y30
G0 F2475 X63.344 Y73.833
M204 S500
M205 X10 Y10
G1 F1050 X73.833 Y63.345 E146.5947
M204 S1500
M205 X30 Y30
G0 F2475 X73.833 Y62.638
M204 S500
M205 X10 Y10
G1 F1050 X62.637 Y73.833 E147.41752
M204 S1500
M205 X30 Y30
G0 F2475 X61.93 Y73.833
M204 S500
M205 X10 Y10
G1 F1050 X73.833 Y61.931 E148.29229
M204 S1500
M205 X30 Y30
G0 F2475 X73.833 Y61.224
M204 S500
M205 X10 Y10
G1 F1050 X61.223 Y73.833 E149.21903
M204 S1500
M205 X30 Y30
G0 F2475 X60.516 Y73.833
M204 S500
M205 X10 Y10
G1 F1050 X73.833 Y60.517 E150.19773
M204 S1500
M205 X30 Y30
G0 F2475 X73.833 Y59.809
M204 S500
M205 X10 Y10
G1 F1050 X59.809 Y73.833 E151.22843
M204 S1500
M205 X30 Y30
G0 F2475 X59.102 Y73.833
M204 S500
M205 X10 Y10
G1 F1050 X73.833 Y59.102 E152.31109
M204 S1500
M205 X30 Y30
G0 F2475 X73.833 Y58.395
M204 S500
M205 X10 Y10
G1 F1050 X58.394 Y73.833 E153.44574
M204 S1500
M205 X30 Y30
G0 F2475 X57.687 Y73.833
M204 S500
M205 X10 Y10
G1 F1050 X73.833 Y57.688 E154.63236
M204 S1500
M205 X30 Y30
G0 F2475 X73.833 Y56.981
M204 S500
M205 X10 Y10
G1 F1050 X56.98 Y73.833 E155.87094
M204 S1500
M205 X30 Y30
G0 F2475 X56.273 Y73.833
M204 S500
M205 X10 Y10
G1 F1050 X73.833 Y56.274 E157.16147
M204 S1500
M205 X30 Y30
G0 F2475 X73.833 Y55.567
M204 S500
M205 X10 Y10
G1 F1050 X55.566 Y73.833 E158.50398
M204 S1500
M205 X30 Y30
G0 F2475 X54.859 Y73.833
M204 S500
M205 X10 Y10
G1 F1050 X73.833 Y54.86 E159.89844
M204 S1500
M205 X30 Y30
G0 F2475 X73.833 Y54.153
M204 S500
M205 X10 Y10
G1 F1050 X54.152 Y73.833 E161.34486
M204 S1500
M205 X30 Y30
G0 F2475 X53.445 Y73.833
M204 S500
M205 X10 Y10
G1 F1050 X73.833 Y53.445 E162.84328
M204 S1500
M205 X30 Y30
G0 F2475 X73.833 Y52.738
M204 S500
M205 X10 Y10
G1 F1050 X52.738 Y73.833 E164.39366
M204 S1500
M205 X30 Y30
G0 F2475 X52.031 Y73.833
M204 S500
M205 X10 Y10
G1 F1050 X73.833 Y52.031 E165.996
M204 S1500
M205 X30 Y30
G0 F2475 X73.833 Y51.324
M204 S500
M205 X10 Y10
G1 F1050 X51.323 Y73.833 E167.65034
M204 S1500
M205 X30 Y30
G0 F2475 X50.616 Y73.833
M204 S500
M205 X10 Y10
G1 F1050 X73.833 Y50.617 E169.35665
M204 S1500
M205 X30 Y30
G0 F2475 X73.833 Y49.91
M204 S500
M205 X10 Y10
G1 F1050 X49.909 Y73.833 E171.11491
M204 S1500
M205 X30 Y30
G0 F2475 X49.202 Y73.833
M204 S500
M205 X10 Y10
G1 F1050 X73.833 Y49.203 E172.92513
M204 S1500
M205 X30 Y30
G0 F2475 X73.833 Y48.496
M204 S500
M205 X10 Y10
G1 F1050 X48.495 Y73.833 E174.78732
M204 S1500
M205 X30 Y30
G0 F2475 X47.788 Y73.833
M204 S500
M205 X10 Y10
G1 F1050 X73.833 Y47.789 E176.70146
M204 S1500
M205 X30 Y30
G0 F2475 X73.833 Y47.081
M204 S500
M205 X10 Y10
G1 F1050 X47.081 Y73.833 E178.66761
M204 S1500
M205 X30 Y30
G0 F2475 X46.374 Y73.833
M204 S500
M205 X10 Y10
G1 F1050 X73.833 Y46.374 E180.68571
M204 S1500
M205 X30 Y30
G0 F2475 X73.335 Y46.165
M204 S500
M205 X10 Y10
G1 F1050 X46.165 Y73.335 E182.68258
M204 S1500
M205 X30 Y30
G0 F2475 X46.165 Y72.628
M204 S500
M205 X10 Y10
G1 F1050 X72.628 Y46.165 E184.62748
M204 S1500
M205 X30 Y30
G0 F2475 X71.921 Y46.165
M204 S500
M205 X10 Y10
G1 F1050 X46.165 Y71.921 E186.52042
M204 S1500
M205 X30 Y30
G0 F2475 X46.165 Y71.214
M204 S500
M205 X10 Y10
G1 F1050 X71.214 Y46.165 E188.3614
M204 S1500
M205 X30 Y30
G0 F2475 X70.507 Y46.165
M204 S500
M205 X10 Y10
G1 F1050 X46.165 Y70.507 E190.15042
M204 S1500
M205 X30 Y30
G0 F2475 X46.165 Y69.799
M204 S500
M205 X10 Y10
G1 F1050 X69.799 Y46.165 E191.88741
M204 S1500
M205 X30 Y30
G0 F2475 X69.092 Y46.165
M204 S500
M205 X10 Y10
G1 F1050 X46.165 Y69.092 E193.57243
M204 S1500
M205 X30 Y30
G0 F2475 X46.165 Y68.385
M204 S500
M205 X10 Y10
G1 F1050 X68.385 Y46.165 E195.2055
M204 S1500
M205 X30 Y30
G0 F2475 X67.678 Y46.165
M204 S500
M205 X10 Y10
G1 F1050 X46.165 Y67.678 E196.7866
M204 S1500
M205 X30 Y30
G0 F2475 X46.165 Y66.971
M204 S500
M205 X10 Y10
G1 F1050 X66.971 Y46.165 E198.31574
M204 S1500
M205 X30 Y30
G0 F2475 X66.264 Y46.165
M204 S500
M205 X10 Y10
G1 F1050 X46.165 Y66.264 E199.79292
M204 S1500
M205 X30 Y30
G0 F2475 X46.165 Y65.557
M204 S500
M205 X10 Y10
G1 F1050 X65.557 Y46.165 E201.21814
M204 S1500
M205 X30 Y30
G0 F2475 X64.85 Y46.165
M204 S500
M205 X10 Y10
G1 F1050 X46.165 Y64.85 E202.5914
M204 S1500
M205 X30 Y30
G0 F2475 X46.165 Y64.143
M204 S500
M205 X10 Y10
G1 F1050 X64.143 Y46.165 E203.9127
M204 S1500
M205 X30 Y30
G0 F2475 X63.435 Y46.165
M204 S500
M205 X10 Y10
G1 F1050 X46.165 Y63.435 E205.18196
M204 S1500
M205 X30 Y30
G0 F2475 X46.165 Y62.728
M204 S500
M205 X10 Y10
G1 F1050 X62.728 Y46.165 E206.39926
M204 S1500
M205 X30 Y30
G0 F2475 X62.021 Y46.165
M204 S500
M205 X10 Y10
G1 F1050 X46.165 Y62.021 E207.5646
M204 S1500
M205 X30 Y30
G0 F2475 X46.165 Y61.314
M204 S500
M205 X10 Y10
G1 F1050 X61.314 Y46.165 E208.67798
M204 S1500
M205 X30 Y30
G0 F2475 X60.607 Y46.165
M204 S500
M205 X10 Y10
G1 F1050 X46.165 Y60.607 E209.7394
M204 S1500
M205 X30 Y30
G0 F2475 X46.165 Y59.9
M204 S500
M205 X10 Y10
G1 F1050 X59.9 Y46.165 E210.74885
M204 S1500
M205 X30 Y30
G0 F2475 X59.193 Y46.165
M204 S500
M205 X10 Y10
G1 F1050 X46.165 Y59.193 E211.70635
M204 S1500
M205 X30 Y30
G0 F2475 X46.165 Y58.486
M204 S500
M205 X10 Y10
G1 F1050 X58.486 Y46.165 E212.61188
M204 S1500
M205 X30 Y30
G0 F2475 X57.779 Y46.165
M204 S500
M205 X10 Y10
G1 F1050 X46.165 Y57.779 E213.46546
M204 S1500
M205 X30 Y30
G0 F2475 X46.165 Y57.072
M204 S500
M205 X10 Y10
G1 F1050 X57.072 Y46.165 E214.26707
M204 S1500
M205 X30 Y30
G0 F2475 X56.364 Y46.165
M204 S500
M205 X10 Y10
G1 F1050 X46.165 Y56.364 E215.01665
M204 S1500
M205 X30 Y30
G0 F2475 X46.165 Y55.657
M204 S500
M205 X10 Y10
G1 F1050 X55.657 Y46.165 E215.71426
M204 S1500
M205 X30 Y30
G0 F2475 X54.95 Y46.165
M204 S500
M205 X10 Y10
G1 F1050 X46.165 Y54.95 E216.35992
M204 S1500
M205 X30 Y30
G0 F2475 X46.165 Y54.243
M204 S500
M205 X10 Y10
G1 F1050 X54.243 Y46.165 E216.95361
M204 S1500
M205 X30 Y30
G0 F2475 X53.536 Y46.165
M204 S500
M205 X10 Y10
G1 F1050 X46.165 Y53.536 E217.49535
M204 S1500
M205 X30 Y30
G0 F2475 X46.165 Y52.829
M204 S500
M205 X10 Y10
G1 F1050 X52.829 Y46.165 E217.98512
M204 S1500
M205 X30 Y30
G0 F2475 X52.122 Y46.165
M204 S500
M205 X10 Y10
G1 F1050 X46.165 Y52.122 E218.42293
M204 S1500
M205 X30 Y30
G0 F2475 X46.165 Y51.415
M204 S500
M205 X10 Y10
G1 F1050 X51.415 Y46.165 E218.80878
M204 S1500
M205 X30 Y30
G0 F2475 X50.708 Y46.165
M204 S500
M205 X10 Y10
G1 F1050 X46.165 Y50.708 E219.14267
M204 S1500
M205 X30 Y30
G0 F2475 X46.165 Y50
M204 S500
M205 X10 Y10
G1 F1050 X50 Y46.165 E219.42452
M204 S1500
M205 X30 Y30
G0 F2475 X49.293 Y46.165
M204 S500
M205 X10 Y10
G1 F1050 X46.165 Y49.293 E219.65441
M204 S1500
M205 X30 Y30
G0 F2475 X46.165 Y48.586
M204 S500
M205 X10 Y10
G1 F1050 X48.586 Y46.165 E219.83235
M204 S1500
M205 X30 Y30
G0 F2475 X47.879 Y46.165
M204 S500
M205 X10 Y10
G1 F1050 X46.165 Y47.879 E219.95832
M204 S1500
M205 X30 Y30
G0 F2475 X46.165 Y47.172
M204 S500
M205 X10 Y10
G1 F1050 X47.172 Y46.165 E220.03233
M204 S1500
M205 X30 Y30
G0 F2475 X46.465 Y46.165
M204 S500
M205 X10 Y10
G1 F1050 X46.165 Y46.465 E220.05438
M204 S1500
M205 X30 Y30
;MESH:NONMESH
G0 F600 X46.165 Y46.465 Z0.8
G0 F2475 X74.479 Y74.479
G0 X74.549 Y74.549
;TIME_ELAPSED:253.639510
;LAYER:2
M106 S255
M204 S500
M205 X10 Y10
;TYPE:WALL-OUTER
;MESH:cube.stl
G1 F1200 X45.451 Y74.549 E221.31449
G1 X45.451 Y45.451 E222.5746
G1 X74.549 Y45.451 E223.83471
G1 X74.549 Y74.037 E225.07264
G0 F960 X74.549 Y74.549
M204 S2000
M205 X30 Y30
G0 F3600 X74.299 Y74.549
G0 X74.059 Y74.059
M204 S500
M205 X10 Y10
;TYPE:SKIN
G1 F1200 X45.941 Y74.059 E226.53391
G1 X45.941 Y45.941 E227.99517
G1 X74.059 Y45.941 E229.45643
G1 X74.059 Y73.547 E230.89109
G0 F960 X74.059 Y74.059
M204 S2000
M205 X30 Y30
G0 F3600 X73.833 Y46.256
M204 S500
M205 X10 Y10
G1 F1200 X73.742 Y46.165 E230.89778
M204 S2000
M205 X30 Y30
G0 F3600 X73.035 Y46.165
M204 S500
M205 X10 Y10
G1 F1200 X73.833 Y46.963 E230.95643
M204 S2000
M205 X30 Y30
G0 F3600 X73.833 Y47.671
M204 S500
M205 X10 Y10
G1 F1200 X72.328 Y46.165 E231.06707
M204 S2000
M205 X30 Y30
G0 F3600 X71.621 Y46.165
M204 S500
M205 X10 Y10
G1 F1200 X73.833 Y48.378 E231.22968
M204 S2000
M205 X30 Y30
G0 F3600 X73.833 Y49.085
M204 S500
M205 X10 Y10
G1 F1200 X70.914 Y46.165 E231.44425
M204 S2000
M205 X30 Y30
G0 F3600 X70.207 Y46.165
M204 S500
M205 X10 Y10
G1 F1200 X73.833 Y49.792 E231.71078
M204 S2000
M205 X30 Y30
G0 F3600 X73.833 Y50.499
M204 S500
M205 X10 Y10
G1 F1200 X69.5 Y46.165 E232.02927
M204 S2000
M205 X30 Y30
G0 F3600 X68.793 Y46.165
M204 S500
M205 X10 Y10
G1 F1200 X73.833 Y51.206 E232.39973
M204 S2000
M205 X30 Y30
G0 F3600 X73.833 Y51.913
M204 S500
M205 X10 Y10
G1 F1200 X68.085 Y46.165 E232.82218
M204 S2000
M205 X30 Y30
G0 F3600 X67.378 Y46.165
M204 S500
M205 X10 Y10
G1 F1200 X73.833 Y52.62 E233.29659
M204 S2000
M205 X30 Y30
G0 F3600 X73.833 Y53.327
M204 S500
M205 X10 Y10
G1 F1200 X66.671 Y46.165 E233.82296
M204 S2000
M205 X30 Y30
G0 F3600 X65.964 Y46.165
M204 S500
M205 X10 Y10
G1 F1200 X73.833 Y54.034 E234.40129
M204 S2000
M205 X30 Y30
G0 F3600 X73.833 Y54.742
M204 S500
M205 X10 Y10
G1 F1200 X65.257 Y46.165 E235.03163
M204 S2000
M205 X30 Y30
G0 F3600 X64.55 Y46.165
M204 S500
M205 X10 Y10
G1 F1200 X73.833 Y55.449 E235.71392
M204 S2000
M205 X30 Y30
G0 F3600 X73.833 Y56.156
M204 S500
M205 X10 Y10
G1 F1200 X63.843 Y46.165 E236.44817
M204 S2000
M205 X30 Y30
G0 F3600 X63.136 Y46.165
M204 S500
M205 X10 Y10
G1 F1200 X73.833 Y56.863 E237.23439
M204 S2000
M205 X30 Y30
G0 F3600 X73.833 Y57.57
M204 S500
M205 X10 Y10
G1 F1200 X62.429 Y46.165 E238.07256
M204 S2000
M205 X30 Y30
G0 F3600 X61.721 Y46.165
M204 S500
M205 X10 Y10
G1 F1200 X73.833 Y58.277 E238.96274
M204 S2000
M205 X30 Y30
G0 F3600 X73.833 Y58.984
M204 S500
M205 X10 Y10
G1 F1200 X61.014 Y46.165 E239.90487
M204 S2000
M205 X30 Y30
G0 F3600 X60.307 Y46.165
M204 S500
M205 X10 Y10
G1 F1200 X73.833 Y59.691 E240.89897
M204 S2000
M205 X30 Y30
G0 F3600 X73.833 Y60.398
M204 S500
M205 X10 Y10
G1 F1200 X59.6 Y46.165 E241.94503
M204 S2000
M205 X30 Y30
G0 F3600 X58.893 Y46.165
M204 S500
M205 X10 Y10
G1 F1200 X73.833 Y61.106 E243.04308
M204 S2000
M205 X30 Y30
G0 F3600 X73.833 Y61.813
M204 S500
M205 X10 Y10
G1 F1200 X58.186 Y46.165 E244.1931
M204 S2000
M205 X30 Y30
G0 F3600 X57.479 Y46.165
M204 S500
M205 X10 Y10
G1 F1200 X73.833 Y62.52 E245.39507
M204 S2000
M205 X30 Y30
G0 F3600 X73.833 Y63.227
M204 S500
M205 X10 Y10
G1 F1200 X56.772 Y46.165 E246.64901
M204 S2000
M205 X30 Y30
G0 F3600 X56.065 Y46.165
M204 S500
M205 X10 Y10
G1 F1200 X73.833 Y63.934 E247.95491
M204 S2000
M205 X30 Y30
G0 F3600 X73.833 Y64.641
M204 S500
M205 X10 Y10
G1 F1200 X55.357 Y46.165 E249.31281
M204 S2000
M205 X30 Y30
G0 F3600 X54.65 Y46.165
M204 S500
M205 X10 Y10
G1 F1200 X73.833 Y65.348 E250.72267
M204 S2000
M205 X30 Y30
G0 F3600 X73.833 Y66.055
M204 S500
M205 X10 Y10
G1 F1200 X53.943 Y46.165 E252.18449
M204 S2000
M205 X30 Y30
G0 F3600 X53.236 Y46.165
M204 S500
M205 X10 Y10
G1 F1200 X73.833 Y66.762 E253.69827
M204 S2000
M205 X30 Y30
G0 F3600 X73.833 Y67.47
M204 S500
M205 X10 Y10
G1 F1200 X52.529 Y46.165 E255.26405
M204 S2000
M205 X30 Y30
G0 F3600 X51.822 Y46.165
M204 S500
M205 X10 Y10
G1 F1200 X73.833 Y68.177 E256.88179
M204 S2000
M205 X30 Y30
G0 F3600 X73.833 Y68.884
M204 S500
M205 X10 Y10
G1 F1200 X51.115 Y46.165 E258.55149
M204 S2000
M205 X30 Y30
G0 F3600 X50.408 Y46.165
M204 S500
M205 X10 Y10
G1 F1200 X73.833 Y69.591 E260.27315
M204 S2000
M205 X30 Y30
G0 F3600 X73.833 Y70.298
M204 S500
M205 X10 Y10
G1 F1200 X49.701 Y46.165 E262.04677
M204 S2000
M205 X30 Y30
G0 F3600 X48.994 Y46.165
M204 S500
M205 X10 Y10
G1 F1200 X73.833 Y71.005 E263.87236
M204 S2000
M205 X30 Y30
G0 F3600 X73.833 Y71.712
M204 S500
M205 X10 Y10
G1 F1200 X48.286 Y46.165 E265.74994
M204 S2000
M205 X30 Y30
G0 F3600 X47.579 Y46.165
M204 S500
M205 X10 Y10
G1 F1200 X73.833 Y72.419 E267.67948
M204 S2000
M205 X30 Y30
G0 F3600 X73.833 Y73.126
M204 S500
M205 X10 Y10
G1 F1200 X46.872 Y46.165 E269.66099
M204 S2000
M205 X30 Y30
G0 F3600 X46.165 Y46.165
M204 S500
M205 X10 Y10
G1 F1200 X73.833 Y73.833 E271.69445
M204 S2000
M205 X30 Y30
G0 F3600 X73.126 Y73.833
M204 S500
M205 X10 Y10
G1 F1200 X46.165 Y46.872 E273.67596
M204 S2000
M205 X30 Y30
G0 F3600 X46.165 Y47.579
M204 S500
M205 X10 Y10
G1 F1200 X72.419 Y73.833 E275.6055
M204 S2000
M205 X30 Y30
G0 F3600 X71.711 Y73.833
M204 S500
M205 X10 Y10
G1 F1200 X46.165 Y48.286 E277.48305
M204 S2000
M205 X30 Y30
G0 F3600 X46.165 Y48.994
M204 S500
M205 X10 Y10
G1 F1200 X71.004 Y73.833 E279.30859
M204 S2000
M205 X30 Y30
G0 F3600 X70.297 Y73.833
M204 S500
M205 X10 Y10
G1 F1200 X46.165 Y49.701 E281.08218
M204 S2000
M205 X30 Y30
G0 F3600 X46.165 Y50.408
M204 S500
M205 X10 Y10
G1 F1200 X69.59 Y73.833 E282.80381
M204 S2000
M205 X30 Y30
G0 F3600 X68.883 Y73.833
M204 S500
M205 X10 Y10
G1 F1200 X46.165 Y51.115 E284.47347
M204 S2000
M205 X30 Y30
G0 F3600 X46.165 Y51.822
M204 S500
M205 X10 Y10
G1 F1200 X68.176 Y73.833 E286.09117
M204 S2000
M205 X30 Y30
G0 F3600 X67.469 Y73.833
M204 S500
M205 X10 Y10
G1 F1200 X46.165 Y52.529 E287.65691
M204 S2000
M205 X30 Y30
G0 F3600 X46.165 Y53.236
M204 S500
M205 X10 Y10
G1 F1200 X66.762 Y73.833 E289.1707
M204 S2000
M205 X30 Y30
G0 F3600 X66.055 Y73.833
M204 S500
M205 X10 Y10
G1 F1200 X46.165 Y53.943 E290.63252
M204 S2000
M205 X30 Y30
G0 F3600 X46.165 Y54.65
M204 S500
M205 X10 Y10
G1 F1200 X65.347 Y73.833 E292.04234
M204 S2000
M205 X30 Y30
G0 F3600 X64.64 Y73.833
M204 S500
M205 X10 Y10
G1 F1200 X46.165 Y55.357 E293.4002
M204 S2000
M205 X30 Y30
G0 F3600 X46.165 Y56.065
M204 S500
M205 X10 Y10
G1 F1200 X63.933 Y73.833 E294.70606
M204 S2000
M205 X30 Y30
G0 F3600 X63.226 Y73.833
M204 S500
M205 X10 Y10
G1 F1200 X46.165 Y56.772 E295.95996
M204 S2000
M205 X30 Y30
G0 F3600 X46.165 Y57.479
M204 S500
M205 X10 Y10
G1 F1200 X62.519 Y73.833 E297.1619
M204 S2000
M205 X30 Y30
G0 F3600 X61.812 Y73.833
M204 S500
M205 X10 Y10
G1 F1200 X46.165 Y58.186 E298.31188
M204 S2000
M205 X30 Y30
G0 F3600 X46.165 Y58.893
M204 S500
M205 X10 Y10
G1 F1200 X61.105 Y73.833 E299.4099
M204 S2000
M205 X30 Y30
G0 F3600 X60.398 Y73.833
M204 S500
M205 X10 Y10
G1 F1200 X46.165 Y59.6 E300.45596
M204 S2000
M205 X30 Y30
G0 F3600 X46.165 Y60.307
M204 S500
M205 X10 Y10
G1 F1200 X59.691 Y73.833 E301.45005
M204 S2000
M205 X30 Y30
G0 F3600 X58.984 Y73.833
M204 S500
M205 X10 Y10
G1 F1200 X46.165 Y61.014 E302.39219
M204 S2000
M205 X30 Y30
G0 F3600 X46.165 Y61.721
M204 S500
M205 X10 Y10
G1 F1200 X58.276 Y73.833 E303.28233
M204 S2000
M205 X30 Y30
G0 F3600 X57.569 Y73.833
M204 S500
M205 X10 Y10
G1 F1200 X46.165 Y62.429 E304.12047
M204 S2000
M205 X30 Y30
G0 F3600 X46.165 Y63.136
M204 S500
M205 X10 Y10
G1 F1200 X56.862 Y73.833 E304.90664
M204 S2000
M205 X30 Y30
G0 F3600 X56.155 Y73.833
M204 S500
M205 X10 Y10
G1 F1200 X46.165 Y63.843 E305.64086
M204 S2000
M205 X30 Y30
G0 F3600 X46.165 Y64.55
M204 S500
M205 X10 Y10
G1 F1200 X55.448 Y73.833 E306.32312
M204 S2000
M205 X30 Y30
G0 F3600 X54.741 Y73.833
M204 S500
M205 X10 Y10
G1 F1200 X46.165 Y65.257 E306.95341
M204 S2000
M205 X30 Y30
G0 F3600 X46.165 Y65.964
M204 S500
M205 X10 Y10
G1 F1200 X54.034 Y73.833 E307.53175
M204 S2000
M205 X30 Y30
G0 F3600 X53.327 Y73.833
M204 S500
M205 X10 Y10
G1 F1200 X46.165 Y66.671 E308.05812
M204 S2000
M205 X30 Y30
G0 F3600 X46.165 Y67.378
M204 S500
M205 X10 Y10
G1 F1200 X52.62 Y73.833 E308.53253
M204 S2000
M205 X30 Y30
G0 F3600 X51.912 Y73.833
M204 S500
M205 X10 Y10
G1 F1200 X46.165 Y68.085 E308.95494
M204 S2000
M205 X30 Y30
G0 F3600 X46.165 Y68.793
M204 S500
M205 X10 Y10
G1 F1200 X51.205 Y73.833 E309.32536
M204 S2000
M205 X30 Y30
G0 F3600 X50.498 Y73.833
M204 S500
M205 X10 Y10
G1 F1200 X46.165 Y69.5 E309.64382
M204 S2000
M205 X30 Y30
G0 F3600 X46.165 Y70.207
M204 S500
M205 X10 Y10
G1 F1200 X49.791 Y73.833 E309.91031
M204 S2000
M205 X30 Y30
G0 F3600 X49.084 Y73.833
M204 S500
M205 X10 Y10
G1 F1200 X46.165 Y70.914 E310.12484
M204 S2000
M205 X30 Y30
G0 F3600 X46.165 Y71.621
M204 S500
M205 X10 Y10
G1 F1200 X48.377 Y73.833 E310.28741
M204 S2000
M205 X30 Y30
G0 F3600 X47.67 Y73.833
M204 S500
M205 X10 Y10
G1 F1200 X46.165 Y72.328 E310.39802
M204 S2000
M205 X30 Y30
G0 F3600 X46.165 Y73.035
M204 S500
M205 X10 Y10
G1 F1200 X46.963 Y73.833 E310.45667
M204 S2000
M205 X30 Y30
G0 F3600 X46.256 Y73.833
M204 S500
M205 X10 Y10
G1 F1200 X46.165 Y73.742 E310.46336
M204 S2000
M205 X30 Y30
;MESH:NONMESH
G0 F600 X46.165 Y73.742 Z1.05
G0 F3600 X74.479 Y74.479
G0 X74.549 Y74.549
;TIME_ELAPSED:346.197251
;LAYER:3
M204 S500
M205 X10 Y10
;TYPE:WALL-OUTER
;MESH:cube.stl
G1 F1200 X45.451 Y74.549 E311.72347
G1 X45.451 Y45.451 E312.98358
G1 X74.549 Y45.451 E314.24369
G1 X74.549 Y74.037 E315.48163
G0 F960 X74.549 Y74.549
M204 S2000
M205 X30 Y30
G0 F3600 X74.299 Y74.549
G0 X74.049 Y74.049
;MESH:NONMESH
G0 F600 X74.049 Y74.049 Z1.3
G0 F3600 X74.549 Y74.549
;TIME_ELAPSED:352.234115
;LAYER:4
M204 S500
M205 X10 Y10
;TYPE:WALL-OUTER
;MESH:cube.stl
G1 F1200 X45.451 Y74.549 E316.74174
G1 X45.451 Y45.451 E318.00185
G1 X74.549 Y45.451 E319.26196
G1 X74.549 Y74.037 E320.4999
G0 F960 X74.549 Y74.549
M204 S2000
M205 X30 Y30
G0 F3600 X74.299 Y74.549
G0 X74.049 Y74.049
;MESH:NONMESH
G0 F600 X74.049 Y74.049 Z1.55
G0 F3600 X74.549 Y74.549
;TIME_ELAPSED:358.270979
;LAYER:5
M204 S500
M205 X10 Y10
;TYPE:WALL-OUTER
;MESH:cube.stl
G1 F1200 X45.451 Y74.549 E321.76001
G1 X45.451 Y45.451 E323.02012
G1 X74.549 Y45.451 E324.28023
G1 X74.549 Y74.037 E325.51817
G0 F960 X74.549 Y74.549
M204 S2000
M205 X30 Y30
G0 F3600 X74.299 Y74.549
G0 X74.049 Y74.049
;MESH:NONMESH
G0 F600 X74.049 Y74.049 Z1.8
G0 F3600 X74.549 Y74.549
;TIME_ELAPSED:364.307843
;LAYER:6
M204 S500
M205 X10 Y10
;TYPE:WALL-OUTER
;MESH:cube.stl
G1 F1200 X45.451 Y74.549 E326.77828
G1 X45.451 Y45.451 E328.03839
G1 X74.549 Y45.451 E329.2985
G1 X74.549 Y74.037 E330.53643
G0 F960 X74.549 Y74.549
M204 S2000
M205 X30 Y30
G0 F3600 X74.299 Y74.549
G0 X74.049 Y74.049
;MESH:NONMESH
G0 F600 X74.049 Y74.049 Z2.05
G0 F3600 X74.549 Y74.549
;TIME_ELAPSED:370.344707
;LAYER:7
M204 S500
M205 X10 Y10
;TYPE:WALL-OUTER
;MESH:cube.stl
G1 F1200 X45.451 Y74.549 E331.79654
G1 X45.451 Y45.451 E333.05666
G1 X74.549 Y45.451 E334.31677
G1 X74.549 Y74.037 E335.5547
G0 F960 X74.549 Y74.549
M204 S2000
M205 X30 Y30
G0 F3600 X74.299 Y74.549
G0 X74.049 Y74.049
;MESH:NONMESH
G0 F600 X74.049 Y74.049 Z2.3
G0 F3600 X74.549 Y74.549
;TIME_ELAPSED:376.381571
;LAYER:8
M204 S500
M205 X10 Y10
;TYPE:WALL-OUTER
;MESH:cube.stl
G1 F1200 X45.451 Y74.549 E336.81481
G1 X45.451 Y45.451 E338.07492
G1 X74.549 Y45.451 E339.33503
G1 X74.549 Y74.037 E340.57297
G0 F960 X74.549 Y74.549
M204 S2000
M205 X30 Y30
G0 F3600 X74.299 Y74.549
G0 X74.049 Y74.049
;MESH:NONMESH
G0 F600 X74.049 Y74.049 Z2.55
G0 F3600 X74.549 Y74.549
;TIME_ELAPSED:382.418436
;LAYER:9
M204 S500
M205 X10 Y10
;TYPE:WALL-OUTER
;MESH:cube.stl
G1 F1200 X45.451 Y74.549 E341.83308
G1 X45.451 Y45.451 E343.09319
G1 X74.549 Y45.451 E344.3533
G1 X74.549 Y74.037 E345.59124
G0 F960 X74.549 Y74.549
M204 S2000
M205 X30 Y30
G0 F3600 X74.299 Y74.549
G0 X74.049 Y74.049
;MESH:NONMESH
G0 F600 X74.049 Y74.049 Z2.8
G0 F3600 X74.549 Y74.549
;TIME_ELAPSED:388.455300
;LAYER:10
M204 S500
M205 X10 Y10
;TYPE:WALL-OUTER
;MESH:cube.stl
G1 F1200 X45.451 Y74.549 E346.85135
G1 X45.451 Y45.451 E348.11146
G1 X74.549 Y45.451 E349.37157
G1 X74.549 Y74.037 E350.60951
G0 F960 X74.549 Y74.549
M204 S2000
M205 X30 Y30
G0 F3600 X74.299 Y74.549
G0 X74.049 Y74.049
;MESH:NONMESH
G0 F600 X74.049 Y74.049 Z3.05
G0 F3600 X74.549 Y74.549
;TIME_ELAPSED:394.492164
;LAYER:11
M204 S500
M205 X10 Y10
;TYPE:WALL-OUTER
;MESH:cube.stl
G1 F1200 X45.451 Y74.549 E351.86962
G1 X45.451 Y45.451 E353.12973
G1 X74.549 Y45.451 E354.38984
G1 X74.549 Y74.037 E355.62778
G0 F960 X74.549 Y74.549
M204 S2000
M205 X30 Y30
G0 F3600 X74.299 Y74.549
G0 X74.049 Y74.049
;MESH:NONMESH
G0 F600 X74.049 Y74.049 Z3.3
G0 F3600 X74.549 Y74.549
;TIME_ELAPSED:400.529028
;LAYER:12
M204 S500
M205 X10 Y10
;TYPE:WALL-OUTER
;MESH:cube.stl
G1 F1200 X45.451 Y74.549 E356.88789
G1 X45.451 Y45.451 E358.148
G1 X74.549 Y45.451 E359.40811
G1 X74.549 Y74.037 E360.64605
G0 F960 X74.549 Y74.549
M204 S2000
M205 X30 Y30
G0 F3600 X74.299 Y74.549
G0 X74.049 Y74.049
;MESH:NONMESH
G0 F600 X74.049 Y74.049 Z3.55
G0 F3600 X74.549 Y74.549
;TIME_ELAPSED:406.565892
;LAYER:13
M204 S500
M205 X10 Y10
;TYPE:WALL-OUTER
;MESH:cube.stl
G1 F1200 X45.451 Y74.549 E361.90616
G1 X45.451 Y45.451 E363.16627
G1 X74.549 Y45.451 E364.42638
G1 X74.549 Y74.037 E365.66431
G0 F960 X74.549 Y74.549
M204 S2000
M205 X30 Y30
G0 F3600 X74.299 Y74.549
G0 X74.049 Y74.049
;MESH:NONMESH
G0 F600 X74.049 Y74.049 Z3.8
G0 F3600 X74.549 Y74.549
;TIME_ELAPSED:412.602756
;LAYER:14
M204 S500
M205 X10 Y10
;TYPE:WALL-OUTER
;MESH:cube.stl
G1 F1200 X45.451 Y74.549 E366.92443
G1 X45.451 Y45.451 E368.18454
G1 X74.549 Y45.451 E369.44465
G1 X74.549 Y74.037 E370.68258
G0 F960 X74.549 Y74.549
M204 S2000
M205 X30 Y30
G0 F3600 X74.299 Y74.549
G0 X74.049 Y74.049
;MESH:NONMESH
G0 F600 X74.049 Y74.049 Z4.05
G0 F3600 X74.549 Y74.549
;TIME_ELAPSED:418.639620
;LAYER:15
M204 S500
M205 X10 Y10
;TYPE:WALL-OUTER
;MESH:cube.stl
G1 F1200 X45.451 Y74.549 E371.94269
G1 X45.451 Y45.451 E373.2028
G1 X74.549 Y45.451 E374.46291
G1 X74.549 Y74.037 E375.70085
G0 F960 X74.549 Y74.549
M204 S2000
M205 X30 Y30
G0 F3600 X74.299 Y74.549
G0 X74.049 Y74.049
;MESH:NONMESH
G0 F600 X74.049 Y74.049 Z4.3
G0 F3600 X74.549 Y74.549
;TIME_ELAPSED:424.676485
;LAYER:16
M204 S500
M205 X10 Y10
;TYPE:WALL-OUTER
;MESH:cube.stl
G1 F1200 X45.451 Y74.549 E376.96096
G1 X45.451 Y45.451 E378.22107
G1 X74.549 Y45.451 E379.48118
G1 X74.549 Y74.037 E380.71912
G0 F960 X74.549 Y74.549
M204 S2000
M205 X30 Y30
G0 F3600 X74.299 Y74.549
G0 X74.049 Y74.049
;MESH:NONMESH
G0 F600 X74.049 Y74.049 Z4.55
G0 F3600 X74.549 Y74.549
;TIME_ELAPSED:430.713349
;LAYER:17
M204 S500
M205 X10 Y10
;TYPE:WALL-OUTER
;MESH:cube.stl
G1 F1200 X45.451 Y74.549 E381.97923
G1 X45.451 Y45.451 E383.23934
G1 X74.549 Y45.451 E384.49945
G1 X74.549 Y74.037 E385.73739
G0 F960 X74.549 Y74.549
M204 S2000
M205 X30 Y30
G0 F3600 X74.299 Y74.549
G0 X74.049 Y74.049
;MESH:NONMESH
G0 F600 X74.049 Y74.049 Z4.8
G0 F3600 X74.549 Y74.549
;TIME_ELAPSED:436.750213
;LAYER:18
M204 S500
M205 X10 Y10
;TYPE:WALL-OUTER
;MESH:cube.stl
G1 F1200 X45.451 Y74.549 E386.9975
G1 X45.451 Y45.451 E388.25761
G1 X74.549 Y45.451 E389.51772
G1 X74.549 Y74.037 E390.75566
G0 F960 X74.549 Y74.549
M204 S2000
M205 X30 Y30
G0 F3600 X74.299 Y74.549
G0 X74.049 Y74.049
;MESH:NONMESH
G0 F600 X74.049 Y74.049 Z5.05
G0 F3600 X74.549 Y74.549
;TIME_ELAPSED:442.787077
;LAYER:19
M204 S500
M205 X10 Y10
;TYPE:WALL-OUTER
;MESH:cube.stl
G1 F1200 X45.451 Y74.549 E392.01577
G1 X45.451 Y45.451 E393.27588
G1 X74.549 Y45.451 E394.53599
G1 X74.549 Y74.037 E395.77393
G0 F960 X74.549 Y74.549
M204 S2000
M205 X30 Y30
G0 F3600 X74.299 Y74.549
G0 X74.049 Y74.049
;MESH:NONMESH
G0 F600 X74.049 Y74.049 Z5.3
G0 F3600 X74.549 Y74.549
;TIME_ELAPSED:448.823941
;LAYER:20
M204 S500
M205 X10 Y10
;TYPE:WALL-OUTER
;MESH:cube.stl
G1 F1200 X45.451 Y74.549 E397.03404
G1 X45.451 Y45.451 E398.29415
G1 X74.549 Y45.451 E399.55426
G1 X74.549 Y74.037 E400.7922
G0 F960 X74.549 Y74.549
M204 S2000
M205 X30 Y30
G0 F3600 X74.299 Y74.549
G0 X74.049 Y74.049
;MESH:NONMESH
G0 F600 X74.049 Y74.049 Z5.55
G0 F3600 X74.549 Y74.549
;TIME_ELAPSED:454.860805
;LAYER:21
M204 S500
M205 X10 Y10
;TYPE:WALL-OUTER
;MESH:cube.stl
G1 F1200 X45.451 Y74.549 E402.05231
G1 X45.451 Y45.451 E403.31242
G1 X74.549 Y45.451 E404.57253
G1 X74.549 Y74.037 E405.81046
G0 F960 X74.549 Y74.549
M204 S2000
M205 X30 Y30
G0 F3600 X74.299 Y74.549
G0 X74.049 Y74.049
;MESH:NONMESH
G0 F600 X74.049 Y74.049 Z5.8
G0 F3600 X74.549 Y74.549
;TIME_ELAPSED:460.897669
;LAYER:22
M204 S500
M205 X10 Y10
;TYPE:WALL-OUTER
;MESH:cube.stl
G1 F1200 X45.451 Y74.549 E407.07057
G1 X45.451 Y45.451 E408.33068
G1 X74.549 Y45.451 E409.59079
G1 X74.549 Y74.037 E410.82873
G0 F960 X74.549 Y74.549
M204 S2000
M205 X30 Y30
G0 F3600 X74.299 Y74.549
G0 X74.049 Y74.049
;MESH:NONMESH
G0 F600 X74.049 Y74.049 Z6.05
G0 F3600 X74.549 Y74.549
;TIME_ELAPSED:466.934534
;LAYER:23
M204 S500
M205 X10 Y10
;TYPE:WALL-OUTER
;MESH:cube.stl
G1 F1200 X45.451 Y74.549 E412.08884
G1 X45.451 Y45.451 E413.34895
G1 X74.549 Y45.451 E414.60906
G1 X74.549 Y74.037 E415.847
G0 F960 X74.549 Y74.549
M204 S2000
M205 X30 Y30
G0 F3600 X74.299 Y74.549
G0 X74.049 Y74.049
;MESH:NONMESH
G0 F600 X74.049 Y74.049 Z6.3
G0 F3600 X74.549 Y74.549
;TIME_ELAPSED:472.971398
;LAYER:24
M204 S500
M205 X10 Y10
;TYPE:WALL-OUTER
;MESH:cube.stl
G1 F1200 X45.451 Y74.549 E417.10711
G1 X45.451 Y45.451 E418.36722
G1 X74.549 Y45.451 E419.62733
G1 X74.549 Y74.037 E420.86527
G0 F960 X74.549 Y74.549
M204 S2000
M205 X30 Y30
G0 F3600 X74.299 Y74.549
G0 X74.049 Y74.049
;MESH:NONMESH
G0 F600 X74.049 Y74.049 Z6.55
G0 F3600 X74.549 Y74.549
;TIME_ELAPSED:479.008262
;LAYER:25
M204 S500
M205 X10 Y10
;TYPE:WALL-OUTER
;MESH:cube.stl
G1 F1200 X45.451 Y74.549 E422.12538
G1 X45.451 Y45.451 E423.38549
G1 X74.549 Y45.451 E424.6456
G1 X74.549 Y74.037 E425.88354
G0 F960 X74.549 Y74.549
M204 S2000
M205 X30 Y30
G0 F3600 X74.299 Y74.549
G0 X74.049 Y74.049
;MESH:NONMESH
G0 F600 X74.049 Y74.049 Z6.8
G0 F3600 X74.549 Y74.549
;TIME_ELAPSED:485.045126
;LAYER:26
M204 S500
M205 X10 Y10
;TYPE:WALL-OUTER
;MESH:cube.stl
G1 F1200 X45.451 Y74.549 E427.14365
G1 X45.451 Y45.451 E428.40376
G1 X74.549 Y45.451 E429.66387
G1 X74.549 Y74.037 E430.90181
G0 F960 X74.549 Y74.549
M204 S2000
M205 X30 Y30
G0 F3600 X74.299 Y74.549
G0 X74.049 Y74.049
;MESH:NONMESH
G0 F600 X74.049 Y74.049 Z7.05
G0 F3600 X74.549 Y74.549
;TIME_ELAPSED:491.081990
;LAYER:27
M204 S500
M205 X10 Y10
;TYPE:WALL-OUTER
;MESH:cube.stl
G1 F1200 X45.451 Y74.549 E432.16192
G1 X45.451 Y45.451 E433.42203
G1 X74.549 Y45.451 E434.68214
G1 X74.549 Y74.037 E435.92008
G0 F960 X74.549 Y74.549
M204 S2000
M205 X30 Y30
G0 F3600 X74.299 Y74.549
G0 X74.049 Y74.049
;MESH:NONMESH
G0 F600 X74.049 Y74.049 Z7.3
G0 F3600 X74.549 Y74.549
;TIME_ELAPSED:497.118854
;LAYER:28
M204 S500
M205 X10 Y10
;TYPE:WALL-OUTER
;MESH:cube.stl
G1 F1200 X45.451 Y74.549 E437.18019
G1 X45.451 Y45.451 E438.4403
G1 X74.549 Y45.451 E439.70041
G1 X74.549 Y74.037 E440.93834
G0 F960 X74.549 Y74.549
M204 S2000
M205 X30 Y30
G0 F3600 X74.299 Y74.549
G0 X74.049 Y74.049
;MESH:NONMESH
G0 F600 X74.049 Y74.049 Z7.55
G0 F3600 X74.549 Y74.549
;TIME_ELAPSED:503.155719
;LAYER:29
M204 S500
M205 X10 Y10
;TYPE:WALL-OUTER
;MESH:cube.stl
G1 F1200 X45.451 Y74.549 E442.19845
G1 X45.451 Y45.451 E443.45856
G1 X74.549 Y45.451 E444.71867
G1 X74.549 Y74.037 E445.95661
G0 F960 X74.549 Y74.549
M204 S2000
M205 X30 Y30
G0 F3600 X74.299 Y74.549
G0 X74.049 Y74.049
;MESH:NONMESH
G0 F600 X74.049 Y74.049 Z7.8
G0 F3600 X74.549 Y74.549
;TIME_ELAPSED:509.192583
;LAYER:30
M204 S500
M205 X10 Y10
;TYPE:WALL-OUTER
;MESH:cube.stl
G1 F1200 X45.451 Y74.549 E447.21672
G1 X45.451 Y45.451 E448.47683
G1 X74.549 Y45.451 E449.73694
G1 X74.549 Y74.037 E450.97488
G0 F960 X74.549 Y74.549
M204 S2000
M205 X30 Y30
G0 F3600 X74.299 Y74.549
G0 X74.049 Y74.049
;MESH:NONMESH
G0 F600 X74.049 Y74.049 Z8.05
G0 F3600 X74.549 Y74.549
;TIME_ELAPSED:515.229447
;LAYER:31
M204 S500
M205 X10 Y10
;TYPE:WALL-OUTER
;MESH:cube.stl
G1 F1200 X45.451 Y74.549 E452.23499
G1 X45.451 Y45.451 E453.4951
G1 X74.549 Y45.451 E454.75521
G1 X74.549 Y74.037 E455.99315
G0 F960 X74.549 Y74.549
M204 S2000
M205 X30 Y30
G0 F3600 X74.299 Y74.549
G0 X74.049 Y74.049
;MESH:NONMESH
G0 F600 X74.049 Y74.049 Z8.3
G0 F3600 X74.549 Y74.549
;TIME_ELAPSED:521.266311
;LAYER:32
M204 S500
M205 X10 Y10
;TYPE:WALL-OUTER
;MESH:cube.stl
G1 F1200 X45.451 Y74.549 E457.25326
G1 X45.451 Y45.451 E458.51337
G1 X74.549 Y45.451 E459.77348
G1 X74.549 Y74.037 E461.01142
G0 F960 X74.549 Y74.549
M204 S2000
M205 X30 Y30
G0 F3600 X74.299 Y74.549
G0 X74.049 Y74.049
;MESH:NONMESH
G0 F600 X74.049 Y74.049 Z8.55
G0 F3600 X74.549 Y74.549
;TIME_ELAPSED:527.303175
;LAYER:33
M204 S500
M205 X10 Y10
;TYPE:WALL-OUTER
;MESH:cube.stl
G1 F1200 X45.451 Y74.549 E462.27153
G1 X45.451 Y45.451 E463.53164
G1 X74.549 Y45.451 E464.79175
G1 X74.549 Y74.037 E466.02969
G0 F960 X74.549 Y74.549
M204 S2000
M205 X30 Y30
G0 F3600 X74.299 Y74.549
G0 X74.049 Y74.049
;MESH:NONMESH
G0 F600 X74.049 Y74.049 Z8.8
G0 F3600 X74.549 Y74.549
;TIME_ELAPSED:533.340039
;LAYER:34
M204 S500
M205 X10 Y10
;TYPE:WALL-OUTER
;MESH:cube.stl
G1 F1200 X45.451 Y74.549 E467.2898
G1 X45.451 Y45.451 E468.54991
G1 X74.549 Y45.451 E469.81002
G1 X74.549 Y74.037 E471.04796
G0 F960 X74.549 Y74.549
M204 S2000
M205 X30 Y30
G0 F3600 X74.299 Y74.549
G0 X74.049 Y74.049
;MESH:NONMESH
G0 F600 X74.049 Y74.049 Z9.05
G0 F3600 X74.549 Y74.549
;TIME_ELAPSED:539.376903
;LAYER:35
M204 S500
M205 X10 Y10
;TYPE:WALL-OUTER
;MESH:cube.stl
G1 F1200 X45.451 Y74.549 E472.30807
G1 X45.451 Y45.451 E473.56818
G1 X74.549 Y45.451 E474.82829
G1 X74.549 Y74.037 E476.06622
G0 F960 X74.549 Y74.549
M204 S2000
M205 X30 Y30
G0 F3600 X74.299 Y74.549
G0 X74.049 Y74.049
;MESH:NONMESH
G0 F600 X74.049 Y74.049 Z9.3
G0 F3600 X74.549 Y74.549
;TIME_ELAPSED:545.413768
;LAYER:36
M204 S500
M205 X10 Y10
;TYPE:WALL-OUTER
;MESH:cube.stl
G1 F1200 X45.451 Y74.549 E477.32633
G1 X45.451 Y45.451 E478.58644
G1 X74.549 Y45.451 E479.84655
G1 X74.549 Y74.037 E481.08449
G0 F960 X74.549 Y74.549
M204 S2000
M205 X30 Y30
G0 F3600 X74.299 Y74.549
G0 X74.049 Y74.049
;MESH:NONMESH
G0 F600 X74.049 Y74.049 Z9.55
G0 F3600 X74.549 Y74.549
;TIME_ELAPSED:551.450632
;LAYER:37
M204 S500
M205 X10 Y10
;TYPE:WALL-OUTER
;MESH:cube.stl
G1 F1200 X45.451 Y74.549 E482.3446
G1 X45.451 Y45.451 E483.60471
G1 X74.549 Y45.451 E484.86482
G1 X74.549 Y74.037 E486.10276
G0 F960 X74.549 Y74.549
M204 S2000
M205 X30 Y30
G0 F3600 X74.299 Y74.549
G0 X74.049 Y74.049
;MESH:NONMESH
G0 F600 X74.049 Y74.049 Z9.8
G0 F3600 X74.549 Y74.549
;TIME_ELAPSED:557.487496
;LAYER:38
M204 S500
M205 X10 Y10
;TYPE:WALL-OUTER
;MESH:cube.stl
G1 F1200 X45.451 Y74.549 E487.36287
G1 X45.451 Y45.451 E488.62298
G1 X74.549 Y45.451 E489.88309
G1 X74.549 Y74.037 E491.12103
G0 F960 X74.549 Y74.549
M204 S2000
M205 X30 Y30
G0 F3600 X74.299 Y74.549
G0 X74.049 Y74.049
;MESH:NONMESH
G0 F600 X74.049 Y74.049 Z10.05
G0 F3600 X74.549 Y74.549
;TIME_ELAPSED:563.524360
;LAYER:39
M204 S500
M205 X10 Y10
;TYPE:WALL-OUTER
;MESH:cube.stl
G1 F1200 X45.451 Y74.549 E492.38114
G1 X45.451 Y45.451 E493.64125
G1 X74.549 Y45.451 E494.90136
G1 X74.549 Y74.037 E496.1393
G0 F960 X74.549 Y74.549
M204 S2000
M205 X30 Y30
G0 F3600 X74.299 Y74.549
G0 X74.049 Y74.049
;MESH:NONMESH
G0 F600 X74.049 Y74.049 Z10.3
G0 F3600 X74.549 Y74.549
;TIME_ELAPSED:569.561224
;LAYER:40
M204 S500
M205 X10 Y10
;TYPE:WALL-OUTER
;MESH:cube.stl
G1 F1200 X45.451 Y74.549 E497.39941
G1 X45.451 Y45.451 E498.65952
G1 X74.549 Y45.451 E499.91963
G1 X74.549 Y74.037 E501.15757
G0 F960 X74.549 Y74.549
M204 S2000
M205 X30 Y30
G0 F3600 X74.299 Y74.549
G0 X74.049 Y74.049
;MESH:NONMESH
G0 F600 X74.049 Y74.049 Z10.55
G0 F3600 X74.549 Y74.549
;TIME_ELAPSED:575.598088
;LAYER:41
M204 S500
M205 X10 Y10
;TYPE:WALL-OUTER
;MESH:cube.stl
G1 F1200 X45.451 Y74.549 E502.41768
G1 X45.451 Y45.451 E503.67779
G1 X74.549 Y45.451 E504.9379
G1 X74.549 Y74.037 E506.17584
G0 F960 X74.549 Y74.549
M204 S2000
M205 X30 Y30
G0 F3600 X74.299 Y74.549
G0 X74.049 Y74.049
;MESH:NONMESH
G0 F600 X74.049 Y74.049 Z10.8
G0 F3600 X74.549 Y74.549
;TIME_ELAPSED:581.634952
;LAYER:42
M204 S500
M205 X10 Y10
;TYPE:WALL-OUTER
;MESH:cube.stl
G1 F1200 X45.451 Y74.549 E507.43595
G1 X45.451 Y45.451 E508.69606
G1 X74.549 Y45.451 E509.95617
G1 X74.549 Y74.037 E511.1941
G0 F960 X74.549 Y74.549
M204 S2000
M205 X30 Y30
G0 F3600 X74.299 Y74.549
G0 X74.049 Y74.049
;MESH:NONMESH
G0 F600 X74.049 Y74.049 Z11.05
G0 F3600 X74.549 Y74.549
;TIME_ELAPSED:587.671817
;LAYER:43
M204 S500
M205 X10 Y10
;TYPE:WALL-OUTER
;MESH:cube.stl
G1 F1200 X45.451 Y74.549 E512.45421
G1 X45.451 Y45.451 E513.71432
G1 X74.549 Y45.451 E514.97444
G1 X74.549 Y74.037 E516.21237
G0 F960 X74.549 Y74.549
M204 S2000
M205 X30 Y30
G0 F3600 X74.299 Y74.549
G0 X74.049 Y74.049
;MESH:NONMESH
G0 F600 X74.049 Y74.049 Z11.3
G0 F3600 X74.549 Y74.549
;TIME_ELAPSED:593.708681
;LAYER:44
M204 S500
M205 X10 Y10
;TYPE:WALL-OUTER
;MESH:cube.stl
G1 F1200 X45.451 Y74.549 E517.47248
G1 X45.451 Y45.451 E518.73259
G1 X74.549 Y45.451 E519.9927
G1 X74.549 Y74.037 E521.23064
G0 F960 X74.549 Y74.549
M204 S2000
M205 X30 Y30
G0 F3600 X74.299 Y74.549
G0 X74.049 Y74.049
;MESH:NONMESH
G0 F600 X74.049 Y74.049 Z11.55
G0 F3600 X74.549 Y74.549
;TIME_ELAPSED:599.745545
;LAYER:45
M204 S500
M205 X10 Y10
;TYPE:WALL-OUTER
;MESH:cube.stl
G1 F1200 X45.451 Y74.549 E522.49075
G1 X45.451 Y45.451 E523.75086
G1 X74.549 Y45.451 E525.01097
G1 X74.549 Y74.037 E526.24891
G0 F960 X74.549 Y74.549
M204 S2000
M205 X30 Y30
G0 F3600 X74.299 Y74.549
G0 X74.049 Y74.049
;MESH:NONMESH
G0 F600 X74.049 Y74.049 Z11.8
G0 F3600 X74.549 Y74.549
;TIME_ELAPSED:605.782409
;LAYER:46
M204 S500
M205 X10 Y10
;TYPE:WALL-OUTER
;MESH:cube.stl
G1 F1200 X45.451 Y74.549 E527.50902
G1 X45.451 Y45.451 E528.76913
G1 X74.549 Y45.451 E530.02924
G1 X74.549 Y74.037 E531.26718
G0 F960 X74.549 Y74.549
M204 S2000
M205 X30 Y30
G0 F3600 X74.299 Y74.549
G0 X74.049 Y74.049
;MESH:NONMESH
G0 F600 X74.049 Y74.049 Z12.05
G0 F3600 X74.549 Y74.549
;TIME_ELAPSED:611.819273
;LAYER:47
M204 S500
M205 X10 Y10
;TYPE:WALL-OUTER
;MESH:cube.stl
G1 F1200 X45.451 Y74.549 E532.52729
G1 X45.451 Y45.451 E533.7874
G1 X74.549 Y45.451 E535.04751
G1 X74.549 Y74.037 E536.28545
G0 F960 X74.549 Y74.549
M204 S2000
M205 X30 Y30
G0 F3600 X74.299 Y74.549
G0 X74.049 Y74.049
;MESH:NONMESH
G0 F600 X74.049 Y74.049 Z12.3
G0 F3600 X74.549 Y74.549
;TIME_ELAPSED:617.856137
;LAYER:48
M204 S500
M205 X10 Y10
;TYPE:WALL-OUTER
;MESH:cube.stl
G1 F1200 X45.451 Y74.549 E537.54556
G1 X45.451 Y45.451 E538.80567
G1 X74.549 Y45.451 E540.06578
G1 X74.549 Y74.037 E541.30372
G0 F960 X74.549 Y74.549
M204 S2000
M205 X30 Y30
G0 F3600 X74.299 Y74.549
G0 X74.049 Y74.049
;MESH:NONMESH
G0 F600 X74.049 Y74.049 Z12.55
G0 F3600 X74.549 Y74.549
;TIME_ELAPSED:623.893001
;LAYER:49
M204 S500
M205 X10 Y10
;TYPE:WALL-OUTER
;MESH:cube.stl
G1 F1200 X45.451 Y74.549 E542.56383
G1 X45.451 Y45.451 E543.82394
G1 X74.549 Y45.451 E545.08405
G1 X74.549 Y74.037 E546.32198
G0 F960 X74.549 Y74.549
M204 S2000
M205 X30 Y30
G0 F3600 X74.299 Y74.549
G0 X74.049 Y74.049
;MESH:NONMESH
G0 F600 X74.049 Y74.049 Z12.8
G0 F3600 X74.549 Y74.549
;TIME_ELAPSED:629.929866
;LAYER:50
M204 S500
M205 X10 Y10
;TYPE:WALL-OUTER
;MESH:cube.stl
G1 F1200 X45.451 Y74.549 E547.58209
G1 X45.451 Y45.451 E548.8422
G1 X74.549 Y45.451 E550.10232
G1 X74.549 Y74.037 E551.34025
G0 F960 X74.549 Y74.549
M204 S2000
M205 X30 Y30
G0 F3600 X74.299 Y74.549
G0 X74.049 Y74.049
;MESH:NONMESH
G0 F600 X74.049 Y74.049 Z13.05
G0 F3600 X74.549 Y74.549
;TIME_ELAPSED:635.966730
;LAYER:51
M204 S500
M205 X10 Y10
;TYPE:WALL-OUTER
;MESH:cube.stl
G1 F1200 X45.451 Y74.549 E552.60036
G1 X45.451 Y45.451 E553.86047
G1 X74.549 Y45.451 E555.12058
G1 X74.549 Y74.037 E556.35852
G0 F960 X74.549 Y74.549
M204 S2000
M205 X30 Y30
G0 F3600 X74.299 Y74.549
G0 X74.049 Y74.049
;MESH:NONMESH
G0 F600 X74.049 Y74.049 Z13.3
G0 F3600 X74.549 Y74.549
;TIME_ELAPSED:642.003594
;LAYER:52
M204 S500
M205 X10 Y10
;TYPE:WALL-OUTER
;MESH:cube.stl
G1 F1200 X45.451 Y74.549 E557.61863
G1 X45.451 Y45.451 E558.87874
G1 X74.549 Y45.451 E560.13885
G1 X74.549 Y74.037 E561.37679
G0 F960 X74.549 Y74.549
M204 S2000
M205 X30 Y30
G0 F3600 X74.299 Y74.549
G0 X74.049 Y74.049
;MESH:NONMESH
G0 F600 X74.049 Y74.049 Z13.55
G0 F3600 X74.549 Y74.549
;TIME_ELAPSED:648.040458
;LAYER:53
M204 S500
M205 X10 Y10
;TYPE:WALL-OUTER
;MESH:cube.stl
G1 F1200 X45.451 Y74.549 E562.6369
G1 X45.451 Y45.451 E563.89701
G1 X74.549 Y45.451 E565.15712
G1 X74.549 Y74.037 E566.39506
G0 F960 X74.549 Y74.549
M204 S2000
M205 X30 Y30
G0 F3600 X74.299 Y74.549
G0 X74.049 Y74.049
;MESH:NONMESH
G0 F600 X74.049 Y74.049 Z13.8
G0 F3600 X74.549 Y74.549
;TIME_ELAPSED:654.077322
;LAYER:54
M204 S500
M205 X10 Y10
;TYPE:WALL-OUTER
;MESH:cube.stl
G1 F1200 X45.451 Y74.549 E567.65517
G1 X45.451 Y45.451 E568.91528
G1 X74.549 Y45.451 E570.17539
G1 X74.549 Y74.037 E571.41333
G0 F960 X74.549 Y74.549
M204 S2000
M205 X30 Y30
G0 F3600 X74.299 Y74.549
G0 X74.049 Y74.049
;MESH:NONMESH
G0 F600 X74.049 Y74.049 Z14.05
G0 F3600 X74.549 Y74.549
;TIME_ELAPSED:660.114186
;LAYER:55
M204 S500
M205 X10 Y10
;TYPE:WALL-OUTER
;MESH:cube.stl
G1 F1200 X45.451 Y74.549 E572.67344
G1 X45.451 Y45.451 E573.93355
G1 X74.549 Y45.451 E575.19366
G1 X74.549 Y74.037 E576.4316
G0 F960 X74.549 Y74.549
M204 S2000
M205 X30 Y30
G0 F3600 X74.299 Y74.549
G0 X74.049 Y74.049
;MESH:NONMESH
G0 F600 X74.049 Y74.049 Z14.3
G0 F3600 X74.549 Y74.549
;TIME_ELAPSED:666.151050
;LAYER:56
M204 S500
M205 X10 Y10
;TYPE:WALL-OUTER
;MESH:cube.stl
G1 F1200 X45.451 Y74.549 E577.69171
G1 X45.451 Y45.451 E578.95182
G1 X74.549 Y45.451 E580.21193
G1 X74.549 Y74.037 E581.44986
G0 F960 X74.549 Y74.549
M204 S2000
M205 X30 Y30
G0 F3600 X74.299 Y74.549
G0 X74.049 Y74.049
;MESH:NONMESH
G0 F600 X74.049 Y74.049 Z14.55
G0 F3600 X74.549 Y74.549
;TIME_ELAPSED:672.187915
;LAYER:57
M204 S500
M205 X10 Y10
;TYPE:WALL-OUTER
;MESH:cube.stl
G1 F1200 X45.451 Y74.549 E582.70997
G1 X45.451 Y45.451 E583.97009
G1 X74.549 Y45.451 E585.2302
G1 X74.549 Y74.037 E586.46813
G0 F960 X74.549 Y74.549
M204 S2000
M205 X30 Y30
G0 F3600 X74.299 Y74.549
G0 X74.049 Y74.049
;MESH:NONMESH
G0 F600 X74.049 Y74.049 Z14.8
G0 F3600 X74.549 Y74.549
;TIME_ELAPSED:678.224779
;LAYER:58
M204 S500
M205 X10 Y10
;TYPE:WALL-OUTER
;MESH:cube.stl
G1 F1200 X45.451 Y74.549 E587.72824
G1 X45.451 Y45.451 E588.98835
G1 X74.549 Y45.451 E590.24846
G1 X74.549 Y74.037 E591.4864
G0 F960 X74.549 Y74.549
M204 S2000
M205 X30 Y30
G0 F3600 X74.299 Y74.549
G0 X74.049 Y74.049
;MESH:NONMESH
G0 F600 X74.049 Y74.049 Z15.05
G0 F3600 X74.549 Y74.549
;TIME_ELAPSED:684.261643
;LAYER:59
M204 S500
M205 X10 Y10
;TYPE:WALL-OUTER
;MESH:cube.stl
G1 F1200 X45.451 Y74.549 E592.74651
G1 X45.451 Y45.451 E594.00662
G1 X74.549 Y45.451 E595.26673
G1 X74.549 Y74.037 E596.50467
G0 F960 X74.549 Y74.549
M204 S2000
M205 X30 Y30
G0 F3600 X74.299 Y74.549
G0 X74.049 Y74.049
;MESH:NONMESH
G0 F600 X74.049 Y74.049 Z15.3
G0 F3600 X74.549 Y74.549
;TIME_ELAPSED:690.298507
;LAYER:60
M204 S500
M205 X10 Y10
;TYPE:WALL-OUTER
;MESH:cube.stl
G1 F1200 X45.451 Y74.549 E597.76478
G1 X45.451 Y45.451 E599.02489
G1 X74.549 Y45.451 E600.285
G1 X74.549 Y74.037 E601.52294
G0 F960 X74.549 Y74.549
M204 S2000
M205 X30 Y30
G0 F3600 X74.299 Y74.549
G0 X74.049 Y74.049
;MESH:NONMESH
G0 F600 X74.049 Y74.049 Z15.55
G0 F3600 X74.549 Y74.549
;TIME_ELAPSED:696.335371
;LAYER:61
M204 S500
M205 X10 Y10
;TYPE:WALL-OUTER
;MESH:cube.stl
G1 F1200 X45.451 Y74.549 E602.78305
G1 X45.451 Y45.451 E604.04316
G1 X74.549 Y45.451 E605.30327
G1 X74.549 Y74.037 E606.54121
G0 F960 X74.549 Y74.549
M204 S2000
M205 X30 Y30
G0 F3600 X74.299 Y74.549
G0 X74.049 Y74.049
;MESH:NONMESH
G0 F600 X74.049 Y74.049 Z15.8
G0 F3600 X74.549 Y74.549
;TIME_ELAPSED:702.372235
;LAYER:62
M204 S500
M205 X10 Y10
;TYPE:WALL-OUTER
;MESH:cube.stl
G1 F1200 X45.451 Y74.549 E607.80132
G1 X45.451 Y45.451 E609.06143
G1 X74.549 Y45.451 E610.32154
G1 X74.549 Y74.037 E611.55948
G0 F960 X74.549 Y74.549
M204 S2000
M205 X30 Y30
G0 F3600 X74.299 Y74.549
G0 X74.049 Y74.049
;MESH:NONMESH
G0 F600 X74.049 Y74.049 Z16.05
G0 F3600 X74.549 Y74.549
;TIME_ELAPSED:708.409099
;LAYER:63
M204 S500
M205 X10 Y10
;TYPE:WALL-OUTER
;MESH:cube.stl
G1 F1200 X45.451 Y74.549 E612.81959
G1 X45.451 Y45.451 E614.0797
G1 X74.549 Y45.451 E615.33981
G1 X74.549 Y74.037 E616.57774
G0 F960 X74.549 Y74.549
M204 S2000
M205 X30 Y30
G0 F3600 X74.299 Y74.549
G0 X74.049 Y74.049
;MESH:NONMESH
G0 F600 X74.049 Y74.049 Z16.3
G0 F3600 X74.549 Y74.549
;TIME_ELAPSED:714.445964
;LAYER:64
M204 S500
M205 X10 Y10
;TYPE:WALL-OUTER
;MESH:cube.stl
G1 F1200 X45.451 Y74.549 E617.83785
G1 X45.451 Y45.451 E619.09797
G1 X74.549 Y45.451 E620.35808
G1 X74.549 Y74.037 E621.59601
G0 F960 X74.549 Y74.549
M204 S2000
M205 X30 Y30
G0 F3600 X74.299 Y74.549
G0 X74.049 Y74.049
;MESH:NONMESH
G0 F600 X74.049 Y74.049 Z16.55
G0 F3600 X74.549 Y74.549
;TIME_ELAPSED:720.482828
;LAYER:65
M204 S500
M205 X10 Y10
;TYPE:WALL-OUTER
;MESH:cube.stl
G1 F1200 X45.451 Y74.549 E622.85612
G1 X45.451 Y45.451 E624.11623
G1 X74.549 Y45.451 E625.37634
G1 X74.549 Y74.037 E626.61428
G0 F960 X74.549 Y74.549
M204 S2000
M205 X30 Y30
G0 F3600 X74.299 Y74.549
G0 X74.049 Y74.049
;MESH:NONMESH
G0 F600 X74.049 Y74.049 Z16.8
G0 F3600 X74.549 Y74.549
;TIME_ELAPSED:726.519692
;LAYER:66
M204 S500
M205 X10 Y10
;TYPE:WALL-OUTER
;MESH:cube.stl
G1 F1200 X45.451 Y74.549 E627.87439
G1 X45.451 Y45.451 E629.1345
G1 X74.549 Y45.451 E630.39461
G1 X74.549 Y74.037 E631.63255
G0 F960 X74.549 Y74.549
M204 S2000
M205 X30 Y30
G0 F3600 X74.299 Y74.549
G0 X74.049 Y74.049
;MESH:NONMESH
G0 F600 X74.049 Y74.049 Z17.05
G0 F3600 X74.549 Y74.549
;TIME_ELAPSED:732.556556
;LAYER:67
M204 S500
M205 X10 Y10
;TYPE:WALL-OUTER
;MESH:cube.stl
G1 F1200 X45.451 Y74.549 E632.89266
G1 X45.451 Y45.451 E634.15277
G1 X74.549 Y45.451 E635.41288
G1 X74.549 Y74.037 E636.65082
G0 F960 X74.549 Y74.549
M204 S2000
M205 X30 Y30
G0 F3600 X74.299 Y74.549
G0 X74.049 Y74.049
;MESH:NONMESH
G0 F600 X74.049 Y74.049 Z17.3
G0 F3600 X74.549 Y74.549
;TIME_ELAPSED:738.593420
;LAYER:68
M204 S500
M205 X10 Y10
;TYPE:WALL-OUTER
;MESH:cube.stl
G1 F1200 X45.451 Y74.549 E637.91093
G1 X45.451 Y45.451 E639.17104
G1 X74.549 Y45.451 E640.43115
G1 X74.549 Y74.037 E641.66909
G0 F960 X74.549 Y74.549
M204 S2000
M205 X30 Y30
G0 F3600 X74.299 Y74.549
G0 X74.049 Y74.049
;MESH:NONMESH
G0 F600 X74.049 Y74.049 Z17.55
G0 F3600 X74.549 Y74.549
;TIME_ELAPSED:744.630284
;LAYER:69
M204 S500
M205 X10 Y10
;TYPE:WALL-OUTER
;MESH:cube.stl
G1 F1200 X45.451 Y74.549 E642.9292
G1 X45.451 Y45.451 E644.18931
G1 X74.549 Y45.451 E645.44942
G1 X74.549 Y74.037 E646.68736
G0 F960 X74.549 Y74.549
M204 S2000
M205 X30 Y30
G0 F3600 X74.299 Y74.549
G0 X74.049 Y74.049
;MESH:NONMESH
G0 F600 X74.049 Y74.049 Z17.8
G0 F3600 X74.549 Y74.549
;TIME_ELAPSED:750.667148
;LAYER:70
M204 S500
M205 X10 Y10
;TYPE:WALL-OUTER
;MESH:cube.stl
G1 F1200 X45.451 Y74.549 E647.94747
G1 X45.451 Y45.451 E649.20758
G1 X74.549 Y45.451 E650.46769
G1 X74.549 Y74.037 E651.70562
G0 F960 X74.549 Y74.549
M204 S2000
M205 X30 Y30
G0 F3600 X74.299 Y74.549
G0 X74.049 Y74.049
;MESH:NONMESH
G0 F600 X74.049 Y74.049 Z18.05
G0 F3600 X74.549 Y74.549
;TIME_ELAPSED:756.704013
;LAYER:71
M204 S500
M205 X10 Y10
;TYPE:WALL-OUTER
;MESH:cube.stl
G1 F1200 X45.451 Y74.549 E652.96574
G1 X45.451 Y45.451 E654.22585
G1 X74.549 Y45.451 E655.48596
G1 X74.549 Y74.037 E656.72389
G0 F960 X74.549 Y74.549
M204 S2000
M205 X30 Y30
G0 F3600 X74.299 Y74.549
G0 X74.049 Y74.049
;MESH:NONMESH
G0 F600 X74.049 Y74.049 Z18.3
G0 F3600 X74.549 Y74.549
;TIME_ELAPSED:762.740877
;LAYER:72
M204 S500
M205 X10 Y10
;TYPE:WALL-OUTER
;MESH:cube.stl
G1 F1200 X45.451 Y74.549 E657.984
G1 X45.451 Y45.451 E659.24411
G1 X74.549 Y45.451 E660.50422
G1 X74.549 Y74.037 E661.74216
G0 F960 X74.549 Y74.549
M204 S2000
M205 X30 Y30
G0 F3600 X74.299 Y74.549
G0 X74.049 Y74.049
;MESH:NONMESH
G0 F600 X74.049 Y74.049 Z18.55
G0 F3600 X74.549 Y74.549
;TIME_ELAPSED:768.777741
;LAYER:73
M204 S500
M205 X10 Y10
;TYPE:WALL-OUTER
;MESH:cube.stl
G1 F1200 X45.451 Y74.549 E663.00227
G1 X45.451 Y45.451 E664.26238
G1 X74.549 Y45.451 E665.52249
G1 X74.549 Y74.037 E666.76043
G0 F960 X74.549 Y74.549
M204 S2000
M205 X30 Y30
G0 F3600 X74.299 Y74.549
G0 X74.049 Y74.049
;MESH:NONMESH
G0 F600 X74.049 Y74.049 Z18.8
G0 F3600 X74.549 Y74.549
;TIME_ELAPSED:774.814605
;LAYER:74
M204 S500
M205 X10 Y10
;TYPE:WALL-OUTER
;MESH:cube.stl
G1 F1200 X45.451 Y74.549 E668.02054
G1 X45.451 Y45.451 E669.28065
G1 X74.549 Y45.451 E670.54076
G1 X74.549 Y74.037 E671.7787
G0 F960 X74.549 Y74.549
M204 S2000
M205 X30 Y30
G0 F3600 X74.299 Y74.549
G0 X74.049 Y74.049
;MESH:NONMESH
G0 F600 X74.049 Y74.049 Z19.05
G0 F3600 X74.549 Y74.549
;TIME_ELAPSED:780.851469
;LAYER:75
M204 S500
M205 X10 Y10
;TYPE:WALL-OUTER
;MESH:cube.stl
G1 F1200 X45.451 Y74.549 E673.03881
G1 X45.451 Y45.451 E674.29892
G1 X74.549 Y45.451 E675.55903
G1 X74.549 Y74.037 E676.79697
G0 F960 X74.549 Y74.549
M204 S2000
M205 X30 Y30
G0 F3600 X74.299 Y74.549
G0 X74.049 Y74.049
;MESH:NONMESH
G0 F600 X74.049 Y74.049 Z19.3
G0 F3600 X74.549 Y74.549
;TIME_ELAPSED:786.888333
;LAYER:76
M204 S500
M205 X10 Y10
;TYPE:WALL-OUTER
;MESH:cube.stl
G1 F1200 X45.451 Y74.549 E678.05708
G1 X45.451 Y45.451 E679.31719
G1 X74.549 Y45.451 E680.5773
G1 X74.549 Y74.037 E681.81524
G0 F960 X74.549 Y74.549
M204 S2000
M205 X30 Y30
G0 F3600 X74.299 Y74.549
G0 X74.049 Y74.049
;MESH:NONMESH
G0 F600 X74.049 Y74.049 Z19.55
G0 F3600 X74.549 Y74.549
;TIME_ELAPSED:792.925197
;LAYER:77
M204 S500
M205 X10 Y10
;TYPE:WALL-OUTER
;MESH:cube.stl
G1 F1200 X45.451 Y74.549 E683.07535
G1 X45.451 Y45.451 E684.33546
G1 X74.549 Y45.451 E685.59557
G1 X74.549 Y74.037 E686.83351
G0 F960 X74.549 Y74.549
M204 S2000
M205 X30 Y30
G0 F3600 X74.299 Y74.549
G0 X74.049 Y74.049
;MESH:NONMESH
G0 F600 X74.049 Y74.049 Z19.8
G0 F3600 X74.549 Y74.549
;TIME_ELAPSED:798.962062
;LAYER:78
M204 S500
M205 X10 Y10
;TYPE:WALL-OUTER
;MESH:cube.stl
G1 F1200 X45.451 Y74.549 E688.09362
G1 X45.451 Y45.451 E689.35373
G1 X74.549 Y45.451 E690.61384
G1 X74.549 Y74.037 E691.85177
G0 F960 X74.549 Y74.549
M204 S2000
M205 X30 Y30
G0 F3600 X74.299 Y74.549
G0 X74.049 Y74.049
;MESH:NONMESH
G0 F600 X74.049 Y74.049 Z20.05
G0 F3600 X74.549 Y74.549
;TIME_ELAPSED:804.998926
;LAYER:79
M204 S500
M205 X10 Y10
;TYPE:WALL-OUTER
;MESH:cube.stl
G1 F1200 X45.451 Y74.549 E693.11188
G1 X45.451 Y45.451 E694.37199
G1 X74.549 Y45.451 E695.6321
G1 X74.549 Y74.037 E696.87004
G0 F960 X74.549 Y74.549
M204 S2000
M205 X30 Y30
G0 F3600 X74.299 Y74.549
G0 X74.049 Y74.049
;MESH:NONMESH
G0 F600 X74.049 Y74.049 Z20.3
G0 F3600 X74.549 Y74.549
;TIME_ELAPSED:811.035790
;LAYER:80
M204 S500
M205 X10 Y10
;TYPE:WALL-OUTER
;MESH:cube.stl
G1 F1200 X45.451 Y74.549 E698.13015
G1 X45.451 Y45.451 E699.39026
G1 X74.549 Y45.451 E700.65037
G1 X74.549 Y74.037 E701.88831
G0 F960 X74.549 Y74.549
M204 S2000
M205 X30 Y30
G0 F3600 X74.299 Y74.549
G0 X74.049 Y74.049
;MESH:NONMESH
G0 F600 X74.049 Y74.049 Z20.55
G0 F3600 X74.549 Y74.549
;TIME_ELAPSED:817.072654
;LAYER:81
M204 S500
M205 X10 Y10
;TYPE:WALL-OUTER
;MESH:cube.stl
G1 F1200 X45.451 Y74.549 E703.14842
G1 X45.451 Y45.451 E704.40853
G1 X74.549 Y45.451 E705.66864
G1 X74.549 Y74.037 E706.90658
G0 F960 X74.549 Y74.549
M204 S2000
M205 X30 Y30
G0 F3600 X74.299 Y74.549
G0 X74.049 Y74.049
;MESH:NONMESH
G0 F600 X74.049 Y74.049 Z20.8
G0 F3600 X74.549 Y74.549
;TIME_ELAPSED:823.109518
;LAYER:82
M204 S500
M205 X10 Y10
;TYPE:WALL-OUTER
;MESH:cube.stl
G1 F1200 X45.451 Y74.549 E708.16669
G1 X45.451 Y45.451 E709.4268
G1 X74.549 Y45.451 E710.68691
G1 X74.549 Y74.037 E711.92485
G0 F960 X74.549 Y74.549
M204 S2000
M205 X30 Y30
G0 F3600 X74.299 Y74.549
G0 X74.049 Y74.049
;MESH:NONMESH
G0 F600 X74.049 Y74.049 Z21.05
G0 F3600 X74.549 Y74.549
;TIME_ELAPSED:829.146382
;LAYER:83
M204 S500
M205 X10 Y10
;TYPE:WALL-OUTER
;MESH:cube.stl
G1 F1200 X45.451 Y74.549 E713.18496
G1 X45.451 Y45.451 E714.44507
G1 X74.549 Y45.451 E715.70518
G1 X74.549 Y74.037 E716.94312
G0 F960 X74.549 Y74.549
M204 S2000
M205 X30 Y30
G0 F3600 X74.299 Y74.549
G0 X74.049 Y74.049
;MESH:NONMESH
G0 F600 X74.049 Y74.049 Z21.3
G0 F3600 X74.549 Y74.549
;TIME_ELAPSED:835.183246
;LAYER:84
M204 S500
M205 X10 Y10
;TYPE:WALL-OUTER
;MESH:cube.stl
G1 F1200 X45.451 Y74.549 E718.20323
G1 X45.451 Y45.451 E719.46334
G1 X74.549 Y45.451 E720.72345
G1 X74.549 Y74.037 E721.96139
G0 F960 X74.549 Y74.549
M204 S2000
M205 X30 Y30
G0 F3600 X74.299 Y74.549
G0 X74.049 Y74.049
;MESH:NONMESH
G0 F600 X74.049 Y74.049 Z21.55
G0 F3600 X74.549 Y74.549
;TIME_ELAPSED:841.220111
;LAYER:85
M204 S500
M205 X10 Y10
;TYPE:WALL-OUTER
;MESH:cube.stl
G1 F1200 X45.451 Y74.549 E723.2215
G1 X45.451 Y45.451 E724.48161
G1 X74.549 Y45.451 E725.74172
G1 X74.549 Y74.037 E726.97965
G0 F960 X74.549 Y74.549
M204 S2000
M205 X30 Y30
G0 F3600 X74.299 Y74.549
G0 X74.049 Y74.049
;MESH:NONMESH
G0 F600 X74.049 Y74.049 Z21.8
G0 F3600 X74.549 Y74.549
;TIME_ELAPSED:847.256975
;LAYER:86
M204 S500
M205 X10 Y10
;TYPE:WALL-OUTER
;MESH:cube.stl
G1 F1200 X45.451 Y74.549 E728.23976
G1 X45.451 Y45.451 E729.49987
G1 X74.549 Y45.451 E730.75998
G1 X74.549 Y74.037 E731.99792
G0 F960 X74.549 Y74.549
M204 S2000
M205 X30 Y30
G0 F3600 X74.299 Y74.549
G0 X74.049 Y74.049
;MESH:NONMESH
G0 F600 X74.049 Y74.049 Z22.05
G0 F3600 X74.549 Y74.549
;TIME_ELAPSED:853.293839
;LAYER:87
M204 S500
M205 X10 Y10
;TYPE:WALL-OUTER
;MESH:cube.stl
G1 F1200 X45.451 Y74.549 E733.25803
G1 X45.451 Y45.451 E734.51814
G1 X74.549 Y45.451 E735.77825
G1 X74.549 Y74.037 E737.01619
G0 F960 X74.549 Y74.549
M204 S2000
M205 X30 Y30
G0 F3600 X74.299 Y74.549
G0 X74.049 Y74.049
;MESH:NONMESH
G0 F600 X74.049 Y74.049 Z22.3
G0 F3600 X74.549 Y74.549
;TIME_ELAPSED:859.330703
;LAYER:88
M204 S500
M205 X10 Y10
;TYPE:WALL-OUTER
;MESH:cube.stl
G1 F1200 X45.451 Y74.549 E738.2763
G1 X45.451 Y45.451 E739.53641
G1 X74.549 Y45.451 E740.79652
G1 X74.549 Y74.037 E742.03446
G0 F960 X74.549 Y74.549
M204 S2000
M205 X30 Y30
G0 F3600 X74.299 Y74.549
G0 X74.049 Y74.049
;MESH:NONMESH
G0 F600 X74.049 Y74.049 Z22.55
G0 F3600 X74.549 Y74.549
;TIME_ELAPSED:865.367567
;LAYER:89
M204 S500
M205 X10 Y10
;TYPE:WALL-OUTER
;MESH:cube.stl
G1 F1200 X45.451 Y74.549 E743.29457
G1 X45.451 Y45.451 E744.55468
G1 X74.549 Y45.451 E745.81479
G1 X74.549 Y74.037 E747.05273
G0 F960 X74.549 Y74.549
M204 S2000
M205 X30 Y30
G0 F3600 X74.299 Y74.549
G0 X74.049 Y74.049
;MESH:NONMESH
G0 F600 X74.049 Y74.049 Z22.8
G0 F3600 X74.549 Y74.549
;TIME_ELAPSED:871.404431
;LAYER:90
M204 S500
M205 X10 Y10
;TYPE:WALL-OUTER
;MESH:cube.stl
G1 F1200 X45.451 Y74.549 E748.31284
G1 X45.451 Y45.451 E749.57295
G1 X74.549 Y45.451 E750.83306
G1 X74.549 Y74.037 E752.071
G0 F960 X74.549 Y74.549
M204 S2000
M205 X30 Y30
G0 F3600 X74.299 Y74.549
G0 X74.049 Y74.049
;MESH:NONMESH
G0 F600 X74.049 Y74.049 Z23.05
G0 F3600 X74.549 Y74.549
;TIME_ELAPSED:877.441295
;LAYER:91
M204 S500
M205 X10 Y10
;TYPE:WALL-OUTER
;MESH:cube.stl
G1 F1200 X45.451 Y74.549 E753.33111
G1 X45.451 Y45.451 E754.59122
G1 X74.549 Y45.451 E755.85133
G1 X74.549 Y74.037 E757.08927
G0 F960 X74.549 Y74.549
M204 S2000
M205 X30 Y30
G0 F3600 X74.299 Y74.549
G0 X74.049 Y74.049
;MESH:NONMESH
G0 F600 X74.049 Y74.049 Z23.3
G0 F3600 X74.549 Y74.549
;TIME_ELAPSED:883.478160
;LAYER:92
M204 S500
M205 X10 Y10
;TYPE:WALL-OUTER
;MESH:cube.stl
G1 F1200 X45.451 Y74.549 E758.34938
G1 X45.451 Y45.451 E759.60949
G1 X74.549 Y45.451 E760.8696
G1 X74.549 Y74.037 E762.10753
G0 F960 X74.549 Y74.549
M204 S2000
M205 X30 Y30
G0 F3600 X74.299 Y74.549
G0 X74.049 Y74.049
;MESH:NONMESH
G0 F600 X74.049 Y74.049 Z23.55
G0 F3600 X74.549 Y74.549
;TIME_ELAPSED:889.515024
;LAYER:93
M204 S500
M205 X10 Y10
;TYPE:WALL-OUTER
;MESH:cube.stl
G1 F1200 X45.451 Y74.549 E763.36764
G1 X45.451 Y45.451 E764.62775
G1 X74.549 Y45.451 E765.88786
G1 X74.549 Y74.037 E767.1258
G0 F960 X74.549 Y74.549
M204 S2000
M205 X30 Y30
G0 F3600 X74.299 Y74.549
G0 X74.049 Y74.049
;MESH:NONMESH
G0 F600 X74.049 Y74.049 Z23.8
G0 F3600 X74.549 Y74.549
;TIME_ELAPSED:895.551888
;LAYER:94
M204 S500
M205 X10 Y10
;TYPE:WALL-OUTER
;MESH:cube.stl
G1 F1200 X45.451 Y74.549 E768.38591
G1 X45.451 Y45.451 E769.64602
G1 X74.549 Y45.451 E770.90613
G1 X74.549 Y74.037 E772.14407
G0 F960 X74.549 Y74.549
M204 S2000
M205 X30 Y30
G0 F3600 X74.299 Y74.549
G0 X74.049 Y74.049
;MESH:NONMESH
G0 F600 X74.049 Y74.049 Z24.05
G0 F3600 X74.549 Y74.549
;TIME_ELAPSED:901.588752
;LAYER:95
M204 S500
M205 X10 Y10
;TYPE:WALL-OUTER
;MESH:cube.stl
G1 F1200 X45.451 Y74.549 E773.40418
G1 X45.451 Y45.451 E774.66429
G1 X74.549 Y45.451 E775.9244
G1 X74.549 Y74.037 E777.16234
G0 F960 X74.549 Y74.549
M204 S2000
M205 X30 Y30
G0 F3600 X74.299 Y74.549
G0 X74.049 Y74.049
;MESH:NONMESH
G0 F600 X74.049 Y74.049 Z24.3
G0 F3600 X74.549 Y74.549
;TIME_ELAPSED:907.625616
;LAYER:96
M204 S500
M205 X10 Y10
;TYPE:WALL-OUTER
;MESH:cube.stl
G1 F1200 X45.451 Y74.549 E778.42245
G1 X45.451 Y45.451 E779.68256
G1 X74.549 Y45.451 E780.94267
G1 X74.549 Y74.037 E782.18061
G0 F960 X74.549 Y74.549
M204 S2000
M205 X30 Y30
G0 F3600 X74.299 Y74.549
G0 X74.049 Y74.049
;MESH:NONMESH
G0 F600 X74.049 Y74.049 Z24.55
G0 F3600 X74.549 Y74.549
;TIME_ELAPSED:913.662480
;LAYER:97
M204 S500
M205 X10 Y10
;TYPE:WALL-OUTER
;MESH:cube.stl
G1 F1200 X45.451 Y74.549 E783.44072
G1 X45.451 Y45.451 E784.70083
G1 X74.549 Y45.451 E785.96094
G1 X74.549 Y74.037 E787.19888
G0 F960 X74.549 Y74.549
M204 S2000
M205 X30 Y30
G0 F3600 X74.299 Y74.549
G0 X74.049 Y74.049
;MESH:NONMESH
G0 F600 X74.049 Y74.049 Z24.8
G0 F3600 X74.549 Y74.549
;TIME_ELAPSED:919.699344
;LAYER:98
M204 S500
M205 X10 Y10
;TYPE:WALL-OUTER
;MESH:cube.stl
G1 F1200 X45.451 Y74.549 E788.45899
G1 X45.451 Y45.451 E789.7191
G1 X74.549 Y45.451 E790.97921
G1 X74.549 Y74.037 E792.21715
G0 F960 X74.549 Y74.549
M204 S2000
M205 X30 Y30
G0 F3600 X74.299 Y74.549
G0 X74.049 Y74.049
;MESH:NONMESH
G0 F600 X74.049 Y74.049 Z25.05
G0 F3600 X74.549 Y74.549
;TIME_ELAPSED:925.736209
;LAYER:99
M204 S500
M205 X10 Y10
;TYPE:WALL-OUTER
;MESH:cube.stl
G1 F1200 X45.451 Y74.549 E793.47726
G1 X45.451 Y45.451 E794.73737
G1 X74.549 Y45.451 E795.99748
G1 X74.549 Y74.037 E797.23541
G0 F960 X74.549 Y74.549
M204 S2000
M205 X30 Y30
G0 F3600 X74.299 Y74.549
G0 X74.049 Y74.049
;MESH:NONMESH
G0 F600 X74.049 Y74.049 Z25.3
G0 F3600 X74.549 Y74.549
;TIME_ELAPSED:931.773073
;LAYER:100
M204 S500
M205 X10 Y10
;TYPE:WALL-OUTER
;MESH:cube.stl
G1 F1200 X45.451 Y74.549 E798.49552
G1 X45.451 Y45.451 E799.75563
G1 X74.549 Y45.451 E801.01574
G1 X74.549 Y74.037 E802.25368
G0 F960 X74.549 Y74.549
M204 S2000
M205 X30 Y30
G0 F3600 X74.299 Y74.549
G0 X74.049 Y74.049
;MESH:NONMESH
G0 F600 X74.049 Y74.049 Z25.55
G0 F3600 X74.549 Y74.549
;TIME_ELAPSED:937.809937
;LAYER:101
M204 S500
M205 X10 Y10
;TYPE:WALL-OUTER
;MESH:cube.stl
G1 F1200 X45.451 Y74.549 E803.51379
G1 X45.451 Y45.451 E804.7739
G1 X74.549 Y45.451 E806.03401
G1 X74.549 Y74.037 E807.27195
G0 F960 X74.549 Y74.549
M204 S2000
M205 X30 Y30
G0 F3600 X74.299 Y74.549
G0 X74.049 Y74.049
;MESH:NONMESH
G0 F600 X74.049 Y74.049 Z25.8
G0 F3600 X74.549 Y74.549
;TIME_ELAPSED:943.846801
;LAYER:102
M204 S500
M205 X10 Y10
;TYPE:WALL-OUTER
;MESH:cube.stl
G1 F1200 X45.451 Y74.549 E808.53206
G1 X45.451 Y45.451 E809.79217
G1 X74.549 Y45.451 E811.05228
G1 X74.549 Y74.037 E812.29022
G0 F960 X74.549 Y74.549
M204 S2000
M205 X30 Y30
G0 F3600 X74.299 Y74.549
G0 X74.049 Y74.049
;MESH:NONMESH
G0 F600 X74.049 Y74.049 Z26.05
G0 F3600 X74.549 Y74.549
;TIME_ELAPSED:949.883665
;LAYER:103
M204 S500
M205 X10 Y10
;TYPE:WALL-OUTER
;MESH:cube.stl
G1 F1200 X45.451 Y74.549 E813.55033
G1 X45.451 Y45.451 E814.81044
G1 X74.549 Y45.451 E816.07055
G1 X74.549 Y74.037 E817.30849
G0 F960 X74.549 Y74.549
M204 S2000
M205 X30 Y30
G0 F3600 X74.299 Y74.549
G0 X74.049 Y74.049
;MESH:NONMESH
G0 F600 X74.049 Y74.049 Z26.3
G0 F3600 X74.549 Y74.549
;TIME_ELAPSED:955.920529
;LAYER:104
M204 S500
M205 X10 Y10
;TYPE:WALL-OUTER
;MESH:cube.stl
G1 F1200 X45.451 Y74.549 E818.5686
G1 X45.451 Y45.451 E819.82871
G1 X74.549 Y45.451 E821.08882
G1 X74.549 Y74.037 E822.32676
G0 F960 X74.549 Y74.549
M204 S2000
M205 X30 Y30
G0 F3600 X74.299 Y74.549
G0 X74.049 Y74.049
;MESH:NONMESH
G0 F600 X74.049 Y74.049 Z26.55
G0 F3600 X74.549 Y74.549
;TIME_ELAPSED:961.957393
;LAYER:105
M204 S500
M205 X10 Y10
;TYPE:WALL-OUTER
;MESH:cube.stl
G1 F1200 X45.451 Y74.549 E823.58687
G1 X45.451 Y45.451 E824.84698
G1 X74.549 Y45.451 E826.10709
G1 X74.549 Y74.037 E827.34503
G0 F960 X74.549 Y74.549
M204 S2000
M205 X30 Y30
G0 F3600 X74.299 Y74.549
G0 X74.049 Y74.049
;MESH:NONMESH
G0 F600 X74.049 Y74.049 Z26.8
G0 F3600 X74.549 Y74.549
;TIME_ELAPSED:967.994258
;LAYER:106
M204 S500
M205 X10 Y10
;TYPE:WALL-OUTER
;MESH:cube.stl
G1 F1200 X45.451 Y74.549 E828.60514
G1 X45.451 Y45.451 E829.86525
G1 X74.549 Y45.451 E831.12536
G1 X74.549 Y74.037 E832.36329
G0 F960 X74.549 Y74.549
M204 S2000
M205 X30 Y30
G0 F3600 X74.299 Y74.549
G0 X74.049 Y74.049
;MESH:NONMESH
G0 F600 X74.049 Y74.049 Z27.05
G0 F3600 X74.549 Y74.549
;TIME_ELAPSED:974.031122
;LAYER:107
M204 S500
M205 X10 Y10
;TYPE:WALL-OUTER
;MESH:cube.stl
G1 F1200 X45.451 Y74.549 E833.6234
G1 X45.451 Y45.451 E834.88351
G1 X74.549 Y45.451 E836.14363
G1 X74.549 Y74.037 E837.38156
G0 F960 X74.549 Y74.549
M204 S2000
M205 X30 Y30
G0 F3600 X74.299 Y74.549
G0 X74.049 Y74.049
;TIME_ELAPSED:979.953986
G1 F2700 E833.38156
M140 S0
M204 S4000
M205 X20 Y20
M107
M104 S0
M140 S0
;Retract the filament
G92 E1
G1 E-1 F300
G28 X0 Y0
M84
M82 ;absolute extrusion mode
M104 S0
;End of Gcode
;SETTING_3 {"extruder_quality": ["[general]\\nversion = 4\\nname = 0.5-pla-hot\\
;SETTING_3 ndefinition = custom\\n\\n[metadata]\\nposition = 0\\nsetting_version
;SETTING_3  = 16\\nquality_type = verydraft\\nintent_category = default\\ntype =
;SETTING_3  quality_changes\\n\\n[values]\\nacceleration_print = 500\\naccelerat
;SETTING_3 ion_travel = 2000\\nacceleration_travel_layer_0 = 1000.0\\nbottom_lay
;SETTING_3 ers = 3\\nbrim_outside_only = False\\nbrim_width = 3\\ncoasting_enabl
;SETTING_3 e = True\\ncoasting_speed = 80\\ncool_fan_full_layer = 3\\nfill_perim
;SETTING_3 eter_gaps = nowhere\\nhole_xy_offset = 0\\ninfill_pattern = lines\\ni
;SETTING_3 nfill_sparse_density = 0\\ninfill_wipe_dist = 0.3\\ninitial_layer_lin
;SETTING_3 e_width_factor = 103.0\\njerk_print = 10\\nline_width = 0.5\\nmateria
;SETTING_3 l_final_print_temperature = 190\\nmaterial_flow = 83.33\\nmaterial_fl
;SETTING_3 ow_layer_0 = 100\\nmaterial_initial_print_temperature = 210\\nmateria
;SETTING_3 l_print_temperature = 190\\nmin_infill_area = 30\\nretraction_amount 
;SETTING_3 = 4\\nretraction_extra_prime_amount = 0.0\\nretraction_min_travel = 1
;SETTING_3 \\nretraction_speed = 45\\nskin_line_width = 0.5\\nskin_material_flow
;SETTING_3  = 100\\nskirt_brim_material_flow = 100\\nskirt_line_count = 2\\nsmal
;SETTING_3 l_feature_speed_factor = 30\\nsmall_hole_max_size = 5\\nspeed_layer_0
;SETTING_3  = 15.0\\nspeed_print = 40\\nspeed_travel = 60\\nsupport_infill_rate 
;SETTING_3 = 20\\nsupport_top_distance = 0.15\\nsupport_use_towers = False\\ntop
;SETTING_3 _layers = 0\\ntravel_compensate_overlapping_walls_enabled = False\\nw
;SETTING_3 all_line_count = 1\\nwall_line_width_0 = 0.5\\nwall_line_width_x = 0.
;SETTING_3 5\\nxy_offset = -0.2\\nxy_offset_layer_0 = 0\\n\\n"], "global_quality
;SETTING_3 ": "[general]\\nversion = 4\\nname = 0.5-pla-hot\\ndefinition = custo
;SETTING_3 m\\n\\n[metadata]\\nsetting_version = 16\\nquality_type = verydraft\\
;SETTING_3 ntype = quality_changes\\n\\n[values]\\nacceleration_enabled = True\\
;SETTING_3 nadhesion_type = skirt\\njerk_enabled = True\\nlayer_height = 0.25\\n
;SETTING_3 layer_height_0 = 0.3\\nmaterial_bed_temperature = 60\\nmaterial_bed_t
;SETTING_3 emperature_layer_0 = 60\\nsupport_enable = False\\ntravel_retract_bef
;SETTING_3 ore_outer_wall = True\\n\\n"}
